{"type":"FeatureCollection","crs":{"type":"name","properties":{"name":"EPSG:4326"}},"features":[{"type":"Feature","geometry":{"type":"Polygon","coordinates":[[[-70.1608519520417,42.0418296264554],[-70.1595198539881,42.0411111445356],[-70.158054836947,42.0399841788767],[-70.1568743635756,42.0386843181734],[-70.1560149049491,42.0372515290295],[-70.1555020952884,42.0357294312704],[-70.155397868293,42.0351063616838],[-70.1553676856738,42.0348544236668],[-70.1553215397174,42.0339123798661],[-70.1555380119799,42.0323514876158],[-70.1561149863,42.030842193551],[-70.1563735841652,42.0303898778284],[-70.1565518001489,42.0292602958698],[-70.1571287242648,42.0277509060963],[-70.1578707092954,42.0265676993044],[-70.1596204065368,42.0242351809539],[-70.161238477391,42.0225619303031],[-70.1640690220341,42.0202487446064],[-70.1647055860011,42.0194981862838],[-70.1659947299616,42.0183769622399],[-70.1675065711213,42.0172865025713],[-70.16765973272,42.0171284585504],[-70.1691708271397,42.0160362578637],[-70.1696756940873,42.0157466066689],[-70.1708417070968,42.0151130165747],[-70.172606491452,42.0143163626881],[-70.1748465808118,42.0134914237697],[-70.1758331413849,42.0131679769275],[-70.1776430637275,42.0126453227872],[-70.1781822793756,42.0125007325385],[-70.1810024870514,42.0117988048259],[-70.1823136613688,42.0113643301444],[-70.184354454242,42.0109814576741],[-70.1850803254938,42.0109115577635],[-70.186368501912,42.010816688292],[-70.1882069982443,42.010786016325],[-70.1899856748837,42.0108575496921],[-70.1912765054842,42.0109618323173],[-70.1927797964917,42.011144525983],[-70.1946797811428,42.011494887504],[-70.1965812004637,42.0119706644327],[-70.1975725427918,42.0122560514801],[-70.1990458942455,42.0127360055526],[-70.2016290645025,42.0138813612748],[-70.2041134325732,42.0153232219513],[-70.2050385423945,42.0159183528374],[-70.2063339745709,42.0168413716516],[-70.2071033286665,42.0172360875206],[-70.2082538435699,42.0179070347544],[-70.2090208523179,42.0184125543705],[-70.2103053255018,42.0193989736518],[-70.211052146266,42.020068130489],[-70.2167485978335,42.0245093653816],[-70.2170615641937,42.0247632861867],[-70.2196395158539,42.0269335774942],[-70.2208611115744,42.0281566134224],[-70.2220278301818,42.0295585685011],[-70.2227631411242,42.0305842674407],[-70.224114394738,42.032803689698],[-70.2246054584919,42.03393074111],[-70.2247585947669,42.034256603013],[-70.2252504818725,42.0353015411748],[-70.2253763468788,42.0357469454644],[-70.2260587077404,42.0369740875079],[-70.2263728514585,42.037306782038],[-70.2276131521851,42.0389695383399],[-70.2284831914419,42.0404981440939],[-70.228654095144,42.0407104734191],[-70.2332665199593,42.0450301991521],[-70.235074528154,42.046427853801],[-70.2355968500192,42.0467757887943],[-70.2370762331953,42.0476205185656],[-70.2387961925713,42.0488179661617],[-70.2406810830882,42.0505174786914],[-70.2423999576799,42.050903845022],[-70.2439711785021,42.0513656411567],[-70.2451753191188,42.0514576383552],[-70.2472010060331,42.0518861941226],[-70.2488531065877,42.0524647825556],[-70.2494982216091,42.0527369185681],[-70.2497411592198,42.0528424914089],[-70.2514481258545,42.0537610108652],[-70.2530182307023,42.0549824461473],[-70.254646112447,42.0565140531362],[-70.2557257929838,42.0577171458055],[-70.2565877753168,42.0591491812207],[-70.2567823364921,42.0596048374435],[-70.2569980144576,42.0601609395908],[-70.2574731474451,42.0626501824519],[-70.2574749470592,42.0637942776764],[-70.2567811694065,42.0668116200518],[-70.2557390221481,42.0690029069944],[-70.2545080084467,42.0707515537703],[-70.2536515334774,42.0721693994341],[-70.2528125594231,42.0731985376335],[-70.2517906740907,42.0745059767124],[-70.2506256887566,42.0757437734442],[-70.2499462544583,42.0763992465917],[-70.2473076367319,42.0787160023938],[-70.2455911323462,42.079951584941],[-70.2445478604153,42.0805665726918],[-70.2437506543512,42.0809984043207],[-70.2421189712813,42.0818381407239],[-70.2409666232657,42.0826353138908],[-70.2392232060331,42.0835160107626],[-70.2384297146829,42.0838179159799],[-70.2361415013146,42.0846103539171],[-70.234043097579,42.0855196493373],[-70.2333832334773,42.0857859000067],[-70.2310497823099,42.0866576945674],[-70.2299934526637,42.0870061521278],[-70.2276906685223,42.0876699513507],[-70.2266822678303,42.0879231962629],[-70.222935617729,42.0887290396814],[-70.2224763467959,42.088820712086],[-70.2190388300317,42.0894519537762],[-70.2179705006969,42.0897483928957],[-70.2149063904934,42.0902740198406],[-70.2118419094649,42.0904934165354],[-70.2115254209643,42.0905472128364],[-70.2099856625617,42.0907319321291],[-70.2080516689714,42.0908694132619],[-70.2070012868894,42.0909098721449],[-70.2036474121188,42.09092993927],[-70.2020717934682,42.0910516569027],[-70.2006923101212,42.0910995825607],[-70.1982919588912,42.0910802447279],[-70.1975069547986,42.0911719860564],[-70.195802007696,42.0912798106223],[-70.1894750775454,42.0913454306524],[-70.1864479311986,42.0910906806562],[-70.1854961048485,42.0909183110242],[-70.175220792244,42.0899235934432],[-70.1747575464815,42.0898715906139],[-70.1689533738091,42.0891379482521],[-70.1678050335345,42.0889495495687],[-70.1649153351884,42.0883643775443],[-70.1581692366891,42.0875218617995],[-70.1563941812612,42.0871959789698],[-70.1545207778081,42.0867372691335],[-70.1534517317402,42.0864332309],[-70.1517992300265,42.0858943236161],[-70.149703820513,42.0853625956525],[-70.1462953529473,42.0848642056491],[-70.1446663671013,42.0845365346068],[-70.1439349717491,42.0843477869698],[-70.143372821371,42.0843113230794],[-70.142130172502,42.0841823269277],[-70.1401041642712,42.0837520036147],[-70.1390868031381,42.0834218806812],[-70.1362431720138,42.0823807240179],[-70.1355001404464,42.0821732342065],[-70.1352033024191,42.082132507987],[-70.1327934356309,42.0816045520181],[-70.1315963466396,42.0812379984488],[-70.1308048433473,42.0809701992711],[-70.1291136049382,42.0803427040158],[-70.1275711736523,42.0799174053525],[-70.1241318993971,42.0791377630395],[-70.1221742299753,42.078823826896],[-70.1219298498007,42.0787729820192],[-70.1202934501918,42.0784319950195],[-70.118181429654,42.0778532906615],[-70.1118023573087,42.0761046234015],[-70.1104309733507,42.0756546919194],[-70.1092893755567,42.0752153693486],[-70.1083046811754,42.0749411032974],[-70.1071536563304,42.0745691778039],[-70.1054958855982,42.0739547018587],[-70.1046832494226,42.0736235208445],[-70.101673123442,42.0722844764638],[-70.0978309807995,42.0712222250499],[-70.0961001470908,42.0706241842841],[-70.0944933570482,42.0699488508902],[-70.0940354122421,42.069841296399],[-70.0933545895104,42.0696640981565],[-70.0914608443424,42.0689773608868],[-70.0895998138677,42.0679509854447],[-70.0886433622297,42.06758910183],[-70.0879457815052,42.0673030701094],[-70.0797521342113,42.0636792246265],[-70.0771579187273,42.0626976587442],[-70.0753069974591,42.0618315410828],[-70.0731461966434,42.0606042304634],[-70.0694163744094,42.058737043967],[-70.0685372517888,42.0582522330384],[-70.0661263787889,42.0567931227662],[-70.0608062260193,42.0538420945888],[-70.0594758261563,42.0529850503589],[-70.0587848164798,42.0524698434747],[-70.0572193764072,42.0515908121334],[-70.0557932515949,42.0506492244536],[-70.0552092172003,42.0501978368805],[-70.050539256727,42.0471234166145],[-70.049425391614,42.0462870031711],[-70.0467264660508,42.0439757663248],[-70.0426935138528,42.0409264806989],[-70.0420100138847,42.0403639898301],[-70.0383178248866,42.03709214873],[-70.0368358090737,42.0359126897971],[-70.0345773718791,42.0337559013763],[-70.0318025588054,42.0312935760389],[-70.031271608635,42.0307864630811],[-70.0237283091359,42.0230269483001],[-70.0234190540595,42.0226931159288],[-70.0209977792548,42.019949809231],[-70.0203483059654,42.0191208138925],[-70.0192313087089,42.0175024464165],[-70.0171109764144,42.0151517688272],[-70.0168637041585,42.0148659956817],[-70.0147180989193,42.0122813614804],[-70.0142057601991,42.0115999853081],[-70.0117009739674,42.0078990840958],[-70.0091490977046,42.0048650272372],[-70.0088146996535,42.0042871574603],[-70.0085884220367,42.0039949753315],[-70.0076122300961,42.0027333762115],[-70.0073801478773,42.0024163527906],[-70.0050519522478,41.9990772456187],[-70.0048737506682,41.9988109873244],[-70.0030771656159,41.9960117753093],[-70.002041037626,41.9949164673914],[-70.0011073480348,41.9937527959409],[-70.0002185420164,41.9924275298775],[-69.9997331781379,41.9916034419172],[-69.9989569373852,41.9900832488355],[-69.9979885856691,41.9886190566056],[-69.9954248210463,41.9854280995133],[-69.9948727421628,41.9845158546285],[-69.9947459307027,41.9843306680688],[-69.9932109903442,41.9820924849734],[-69.9929374582613,41.9815902857033],[-69.9922622668918,41.9810686508817],[-69.9910862725882,41.9797671632597],[-69.9902313434842,41.9783331216836],[-69.9899440517483,41.9776139880955],[-69.9895200875637,41.9763640175473],[-69.9885263381542,41.9750013357125],[-69.9884031130656,41.9747734162026],[-69.9878435358639,41.9741086658299],[-69.9862776113837,41.9717984728335],[-69.9858157460178,41.9709594126424],[-69.9849055781822,41.9694480542251],[-69.9840493173524,41.9679700902071],[-69.9832854100465,41.9667853700283],[-69.982592060502,41.9658964879835],[-69.9820502906478,41.9650726484872],[-69.9816720883036,41.9646455695462],[-69.9808175743504,41.963211455288],[-69.9807504562193,41.9630107465688],[-69.9804480194522,41.9625846704881],[-69.9800150233637,41.9620836479615],[-69.9791607017352,41.9606495225419],[-69.9790776191167,41.9604356332899],[-69.9785963081093,41.9596553532569],[-69.9779511524139,41.9583512402896],[-69.9777361817194,41.9577855762289],[-69.97727258645,41.9570882801243],[-69.9769034662069,41.9563151601827],[-69.9764374928092,41.955733180242],[-69.9759388245519,41.954879537217],[-69.9747992585111,41.9536171642801],[-69.9739450473718,41.9521829970355],[-69.9735094217473,41.9509665697008],[-69.9734280344692,41.9506531050477],[-69.9733273023925,41.9504823783779],[-69.9729965650343,41.949857706276],[-69.9724448111164,41.9486915897227],[-69.9722689610124,41.9480724078591],[-69.9719418619465,41.9473121682193],[-69.9717478230621,41.9468531180397],[-69.9714546278886,41.9463944517395],[-69.9709213600013,41.9456714315304],[-69.9700797173531,41.9442543289851],[-69.9699170306983,41.9437664294245],[-69.9689868296861,41.9420515124216],[-69.9687607011069,41.9415993202676],[-69.9682541435274,41.9400797160875],[-69.9678662689735,41.9392826286587],[-69.9672583870005,41.9382614288791],[-69.9668181389927,41.9370258191019],[-69.9667313551874,41.9366881431543],[-69.9657031467572,41.9346240227457],[-69.9653794071325,41.9338756028379],[-69.9642962593724,41.9309378892866],[-69.9640412049796,41.9304830461871],[-69.9632023186857,41.9281417545751],[-69.9625363458288,41.9266622074517],[-69.9622934962289,41.926122608318],[-69.9616831590899,41.9249623065536],[-69.961370567008,41.9239760248634],[-69.9609026244571,41.9229572120634],[-69.9604726555395,41.9217447639952],[-69.9604206826246,41.9214007976803],[-69.9603115124782,41.9212383187406],[-69.9592093837577,41.9187499049765],[-69.9591009462895,41.918542500298],[-69.9589984286841,41.918234951128],[-69.9583619564444,41.9171637847439],[-69.9571970562073,41.9146249743177],[-69.9569750009916,41.9140867236101],[-69.9561773578882,41.9119136889016],[-69.9560042372477,41.9110682204942],[-69.9550096567914,41.9089858934382],[-69.954794569327,41.9084899649365],[-69.9545798972472,41.9079422634569],[-69.9542053904731,41.9065943839226],[-69.9535881645561,41.9050810372288],[-69.9534032079572,41.9044273877465],[-69.9527011546414,41.9030136510582],[-69.9524416294421,41.9022694803041],[-69.9515582969442,41.9006242834584],[-69.9513465091405,41.9001981801254],[-69.950839574198,41.8986750560254],[-69.9508184989027,41.898471079039],[-69.9506065440239,41.8978491150931],[-69.9504667210019,41.8971853565007],[-69.9503102933418,41.8969418114306],[-69.9499735462581,41.8962776297943],[-69.9498459580519,41.8960130439261],[-69.9493390922632,41.8944899126351],[-69.9492691844281,41.8938215188233],[-69.948576120477,41.8926757710413],[-69.9481609411336,41.8918934532994],[-69.947654266659,41.890370405673],[-69.947584039076,41.8897902541619],[-69.9471426610458,41.8887391390962],[-69.9466476572636,41.8866601907375],[-69.9464058949529,41.8861964783851],[-69.9459178277234,41.8847293248981],[-69.9453572319646,41.8839343892958],[-69.9451428589428,41.8834947299497],[-69.9445271246342,41.8816419499231],[-69.9443778124128,41.8808328928299],[-69.9441421085673,41.8800287810293],[-69.9438784105776,41.8785849365865],[-69.9437949510027,41.8783463383948],[-69.9434268158023,41.8767885065649],[-69.9431186786614,41.8758827287923],[-69.9427501636857,41.8745044473722],[-69.9420452381516,41.8728024367262],[-69.9417486121901,41.8719349925724],[-69.9408276570104,41.8685512308125],[-69.9400615075307,41.8665202285428],[-69.9398266416291,41.8657797819503],[-69.939123213489,41.863049494606],[-69.9385824242033,41.8615996811148],[-69.9384123951014,41.8610856923675],[-69.9376796986306,41.8585565240232],[-69.9374609223518,41.858085900207],[-69.9369433469643,41.8565473362168],[-69.9368627475609,41.8561697343843],[-69.9366246667023,41.8555929458025],[-69.9364585736774,41.8551505968944],[-69.9351054488706,41.8511608521822],[-69.9348777157099,41.8506889290367],[-69.9345947653175,41.8500231810501],[-69.9337077051087,41.8476167618308],[-69.9334513624312,41.8467611908116],[-69.9332236745106,41.8457787723749],[-69.9328166557273,41.8445765993299],[-69.932559969341,41.8434469095264],[-69.9320762896624,41.8423956837752],[-69.9311895013245,41.8391247662764],[-69.9310358033718,41.8384118885367],[-69.9308256518631,41.8371060659121],[-69.9304741124132,41.8360853758871],[-69.9302040577563,41.8350567111962],[-69.9298127500044,41.8329132694256],[-69.9292925098637,41.8314253241999],[-69.9290474397502,41.8305472934052],[-69.9289220917201,41.8291886940537],[-69.9288356487417,41.8289392353456],[-69.9286515649733,41.8282107161102],[-69.9284907283091,41.8273451006379],[-69.9281856813544,41.8248077003377],[-69.9281504353927,41.8244205398437],[-69.9279886243308,41.8218265802452],[-69.927835612927,41.8209228898546],[-69.9277403661542,41.8197075221858],[-69.92781290959,41.8172180991501],[-69.9271336845041,41.8164635665225],[-69.9266914785092,41.815802350794],[-69.9256851130886,41.8141304562906],[-69.9254220896144,41.8137846334658],[-69.9245708602431,41.8123500815829],[-69.9240653826148,41.8108268309317],[-69.9239888202756,41.8103935318329],[-69.9238966354735,41.8097546122891],[-69.9238819319364,41.8079281019479],[-69.9238266202751,41.807336338001],[-69.923817282788,41.806189240007],[-69.9238821787477,41.8053452867003],[-69.9236992651888,41.8047693179151],[-69.9235852741273,41.8041609834189],[-69.9233156980979,41.8037317677732],[-69.9231321392433,41.8033819950445],[-69.9223184306466,41.8005932265009],[-69.9222882503038,41.8001881230545],[-69.9222716756304,41.7995199010648],[-69.9224929312362,41.7979594215154],[-69.9227230461228,41.7973255009206],[-69.9225518698551,41.7956966445616],[-69.9225151360977,41.7949773551117],[-69.9221191237537,41.7929131441794],[-69.9221695565007,41.7904301660848],[-69.9220997125342,41.7885876709201],[-69.92212889551,41.7881664595827],[-69.9221487498108,41.7872854123724],[-69.9218540543668,41.7860651123286],[-69.9216709068782,41.7848057437007],[-69.9216014381084,41.7837225568658],[-69.9216267998056,41.7821470276752],[-69.9213667963419,41.7791165641377],[-69.9211341665263,41.7781858223343],[-69.9210864259094,41.776847372816],[-69.9209033509017,41.7760293396351],[-69.9206863016743,41.775563652458],[-69.9202180379822,41.77424863862],[-69.9200654684892,41.7736375122581],[-69.9198686939546,41.7716581772351],[-69.9199127513339,41.7707431558528],[-69.9198064285211,41.7702857559863],[-69.9193493913581,41.7659395258258],[-69.9193651420465,41.764389796352],[-69.9194569515325,41.7636594104533],[-69.9195078858692,41.7634530011542],[-69.9194238365211,41.762781499517],[-69.9193333743088,41.76244201482],[-69.9191434395165,41.7603344498032],[-69.9189002445143,41.758712417331],[-69.9188433205855,41.7582039226292],[-69.9186260013548,41.7552607576171],[-69.9185193069985,41.7549120415427],[-69.9182215839088,41.7531721839522],[-69.9181778069808,41.752084756473],[-69.9181590998521,41.7518690057991],[-69.9180175792559,41.7514555993751],[-69.9177280198919,41.7503096463648],[-69.9175145412812,41.7490054502236],[-69.9174255222471,41.7479100993126],[-69.9174254058925,41.7475217097493],[-69.9172456046678,41.7464555340734],[-69.9171621794015,41.744935852258],[-69.9171950063746,41.7443729522983],[-69.9168281905811,41.742872473763],[-69.9166815882542,41.7404339373256],[-69.9168462949241,41.7390809662754],[-69.9167443712927,41.7377069082275],[-69.9168368779973,41.7360360452391],[-69.9168053276231,41.7357761708298],[-69.916770628076,41.7345228145512],[-69.9169019687407,41.7325120101096],[-69.9167675857824,41.7287662878792],[-69.9164696393146,41.7249907343441],[-69.9162750637356,41.7243249849455],[-69.9160012863286,41.7221268220868],[-69.9160871215428,41.7199831002152],[-69.9160296341381,41.7158146662362],[-69.9161592299173,41.7143924985681],[-69.9161774049083,41.7131112405733],[-69.9161303828394,41.7126760918297],[-69.9161076326458,41.7114701769897],[-69.9161655646904,41.7106504414994],[-69.9161060628687,41.7103552378645],[-69.9160039923093,41.7096829399205],[-69.9158212269185,41.7078737995679],[-69.9158686623713,41.7061443161275],[-69.9159101321935,41.7058820354041],[-69.9158608422621,41.7050490108855],[-69.9159208857496,41.7036736920892],[-69.9160311856705,41.7029177209596],[-69.9159853821125,41.7023610204571],[-69.9162001033775,41.6990444704843],[-69.9163101040299,41.6984359079712],[-69.9161192547048,41.696153888615],[-69.9161011437177,41.6953234591415],[-69.9162551410148,41.6914404551927],[-69.9164120503075,41.6902326278034],[-69.9165620166464,41.6895570833738],[-69.9166205743464,41.6889196189163],[-69.9165880132176,41.6885657167815],[-69.9168091414454,41.6870053336658],[-69.9168582469402,41.6868269961634],[-69.9172625619837,41.6853732597648],[-69.9175147365932,41.6837513525907],[-69.9178088307322,41.6827018498504],[-69.9183681204035,41.679895542824],[-69.9184784719722,41.6794260218561],[-69.9192422833009,41.6766185921316],[-69.9194864262753,41.6758818580117],[-69.9201619044474,41.6741572255778],[-69.9210693419457,41.6707563651235],[-69.9211130627694,41.6697298543856],[-69.9218384790139,41.6669213367421],[-69.9221740558529,41.6662336831902],[-69.9228606576827,41.6650832638931],[-69.9236547792899,41.6639691806067],[-69.9242800681126,41.6631899025821],[-69.9259883653865,41.6612847643328],[-69.9267284563465,41.6605470448215],[-69.9280046268841,41.6588104173272],[-69.9282330539913,41.6581297309348],[-69.929408921282,41.6551833149224],[-69.9300464350572,41.6532880904096],[-69.930696292649,41.651866968809],[-69.9312625570369,41.6509011564769],[-69.931412396792,41.6504507199487],[-69.932928994948,41.6478010047551],[-69.9335150030716,41.6471095677277],[-69.9348152001997,41.6450151604673],[-69.934879637702,41.6448348660743],[-69.9355533338237,41.6434275549921],[-69.9363457057457,41.6421242597778],[-69.9368424739137,41.6413966399109],[-69.9379743030749,41.6399054730652],[-69.9388374271181,41.6385570280328],[-69.940270466139,41.6367256231125],[-69.9414993435019,41.6354322445122],[-69.9420482248793,41.634950704777],[-69.9452210257068,41.6329820594306],[-69.9458005581348,41.6327338812989],[-69.9483620635801,41.6318993482657],[-69.9492467449097,41.6315050238801],[-69.9495673208119,41.6313670273552],[-69.9514788160841,41.6307295027227],[-69.9535604788618,41.6303447807674],[-69.9543221135322,41.6302571649756],[-69.9563574411879,41.6301548793766],[-69.9584378143424,41.6303198062041],[-69.9588457057944,41.6304075524768],[-69.9592980930608,41.629330294],[-69.959792733267,41.6284117341093],[-69.9603621992942,41.6269915271496],[-69.9605987978429,41.6265557382611],[-69.9613305018691,41.6247157501838],[-69.9617061880818,41.6237853968723],[-69.9617987839617,41.6232733656333],[-69.9623765178469,41.6217650128113],[-69.9629106652333,41.6208711085621],[-69.9644355764397,41.6186511906534],[-69.9647759025255,41.6182010365335],[-69.9655071326718,41.6147952318921],[-69.9658447922162,41.6136792106602],[-69.966150198679,41.6129021509847],[-69.9669232650417,41.6117166310308],[-69.9676783976832,41.60938948352],[-69.9678967422727,41.6079419958633],[-69.9679848566134,41.6074688016574],[-69.9684795086569,41.6052235951112],[-69.968460492063,41.6045491362806],[-69.9685428039107,41.6032850466208],[-69.9688166711246,41.6015710384589],[-69.9691490839161,41.6002878061724],[-69.9695144702077,41.5992757067631],[-69.9699078565554,41.5983765455726],[-69.9701888653936,41.5978321968641],[-69.9704655819342,41.5969551461016],[-69.9708860513872,41.5945592701755],[-69.9708969756869,41.5943027755497],[-69.9711877405723,41.5926002467961],[-69.9717355911237,41.5907851922114],[-69.9722972625671,41.5894302049731],[-69.9727358737084,41.5886071051919],[-69.9728952430188,41.588226536572],[-69.9730288891259,41.5874206776667],[-69.9736060350445,41.585912268081],[-69.9738475916392,41.5854495066925],[-69.9744250488657,41.5838509579829],[-69.9745883839038,41.5831620206014],[-69.9745715533287,41.5822624689998],[-69.974634582951,41.581207483608],[-69.9748777076654,41.5794491075986],[-69.9752136654516,41.5780725271872],[-69.9754897631268,41.5772905505144],[-69.9754384773152,41.5765935986342],[-69.9754538718331,41.5764204597899],[-69.9752304289984,41.5757465908558],[-69.9750949242184,41.5747339648603],[-69.975033780603,41.5736807342015],[-69.9750469663168,41.5732982004302],[-69.9749022102031,41.571732725447],[-69.9749914474306,41.5707850710784],[-69.9751941602699,41.5695586159047],[-69.975223085792,41.5687969145519],[-69.9751914409541,41.5683834321934],[-69.9751734328754,41.5677043965742],[-69.9753927167729,41.5661438997218],[-69.975607173038,41.5655062559735],[-69.975568784041,41.5652300088347],[-69.9755164176548,41.5638886476991],[-69.9756720459066,41.5613040628007],[-69.9755718038468,41.5596419328462],[-69.9757257239579,41.5585746605012],[-69.9760412469528,41.5548868637313],[-69.9762734846631,41.5536106466172],[-69.9764859716117,41.5528520390781],[-69.9769649365749,41.5515994824962],[-69.9781509158035,41.5491755842134],[-69.9792998493874,41.5474350143967],[-69.9808966836253,41.5455568892978],[-69.9819483660312,41.5442523633339],[-69.9824798559816,41.5436493844416],[-69.9836657568843,41.5424140845913],[-69.9846401488065,41.5415248910593],[-69.9858888796741,41.5405234555343],[-69.9862367947127,41.5402556962995],[-69.9868814700181,41.5397797358897],[-69.9886634569846,41.5380829032572],[-69.9915538790914,41.5361037070646],[-69.9929284545602,41.5354342599118],[-69.9961767325262,41.5343275038621],[-69.998642855546,41.5338018457659],[-69.9995591138555,41.533635574325],[-70.0017824732241,41.5333007850538],[-70.0039347216584,41.5331260228656],[-70.0062173049927,41.5330969236432],[-70.0075443636661,41.5331358123154],[-70.0095846637494,41.5332802253568],[-70.0106793670878,41.5333958993936],[-70.012414730047,41.5336415269283],[-70.0150783608381,41.5342667645035],[-70.016387201822,41.5347054877752],[-70.0176769016527,41.5352108519746],[-70.0193667511131,41.5361327640719],[-70.0204082173265,41.5369011323471],[-70.0223859254509,41.5385500210113],[-70.0230271297928,41.5391324258565],[-70.024001970257,41.5400967394405],[-70.0254642479937,41.5419797493365],[-70.0260653219323,41.5430276165172],[-70.0270364606538,41.5444494816339],[-70.0281164610457,41.5467591875186],[-70.0283900131728,41.5477656946994],[-70.0286235620968,41.5499089961304],[-70.0285625036869,41.5511165666119],[-70.0280190834696,41.5534760894822],[-70.0274701127998,41.5547871025366],[-70.0266446461881,41.5562762439366],[-70.026308353406,41.5567564314102],[-70.0241238700532,41.5589702704492],[-70.0234849613446,41.5594443552252],[-70.0226054763024,41.5600356117897],[-70.0208734047535,41.5609130102138],[-70.019057080168,41.5615276023787],[-70.0186004769062,41.5616487954917],[-70.0170782160182,41.561874849757],[-70.0164682097047,41.5625107310944],[-70.0144812430608,41.5641101373608],[-70.0136756203961,41.5649376806776],[-70.0130702900653,41.5655088606753],[-70.0120450520184,41.5663998832414],[-70.0118307495753,41.5666232780236],[-70.0117471282472,41.5667904836118],[-70.0108868915204,41.5679166150037],[-70.0103810630278,41.5688009254995],[-70.0098994582565,41.5696433188144],[-70.0094796653589,41.5701426245457],[-70.0085470503561,41.5710776060433],[-70.0084057412308,41.5713836277054],[-70.0074895857812,41.5727943658942],[-70.0073594615747,41.5729288099198],[-70.0072166865036,41.573297304981],[-70.0065661248877,41.5747120672008],[-70.0065193054435,41.574904516658],[-70.0059429140196,41.576413091548],[-70.005148027538,41.5776683621568],[-70.0046006385578,41.5783844307795],[-70.0044199565133,41.5785621499912],[-70.0041242858507,41.5793652762337],[-70.0039056546703,41.5809259187988],[-70.0034181858568,41.5822015260504],[-70.0033498393827,41.5848897614066],[-70.0036718588499,41.5879494590329],[-70.0037064739009,41.5888549082609],[-70.0036775813201,41.5898551531449],[-70.0035572214556,41.5909454129912],[-70.0034142331179,41.5916898563221],[-70.0033536553387,41.5924032376665],[-70.0031533498456,41.5935672748679],[-70.0028823658513,41.5946037714571],[-70.0029302323435,41.5949781059777],[-70.0029648812467,41.5953072417607],[-70.0031332624385,41.5974228226506],[-70.0032533924427,41.597882575058],[-70.0034771170796,41.5996020379134],[-70.0034775912978,41.5999307233639],[-70.0036258520667,41.601142755737],[-70.0035667470248,41.602629408325],[-70.0033749994216,41.6039855437621],[-70.0030109726488,41.6054743931441],[-70.0026542455836,41.6062042237331],[-70.0025642059941,41.6065092042553],[-70.002452395592,41.6072011090282],[-70.001458334446,41.6098517480604],[-70.0010015893785,41.6106032176307],[-70.0003688761558,41.6115055372004],[-69.9991392168829,41.6127752964512],[-69.9976347440056,41.6138652742354],[-69.9970025510491,41.6141850545769],[-69.9955024485697,41.6152801056154],[-69.9935896762954,41.6162300921295],[-69.9938076711821,41.6170884495497],[-69.9939000672878,41.6174302403764],[-69.9939926472205,41.6178152572054],[-69.9938468242346,41.6184026073593],[-69.9937628092655,41.6187397190842],[-69.993947394594,41.6194068189074],[-69.994218703283,41.6203869079919],[-69.9942627278895,41.6209385027474],[-69.9944138901009,41.6218280308314],[-69.9941948770832,41.623388655126],[-69.9939884824755,41.6240505744058],[-69.9938364877677,41.6244661189817],[-69.9932997321663,41.6252841269888],[-69.9931716726344,41.6257022392688],[-69.9924311293505,41.6266824220865],[-69.9921801723206,41.6270848556682],[-69.9913194121349,41.6279295336145],[-69.99092221194,41.6283390284658],[-69.989417233227,41.6294288974836],[-69.989331312535,41.6300688171306],[-69.9893090033919,41.6303121942456],[-69.9893378990818,41.6305371613676],[-69.9892016421695,41.6322057663574],[-69.9893329001396,41.6334636993465],[-69.9893308998865,41.6339144598927],[-69.9891117236588,41.6354749843368],[-69.9886031993348,41.6368038372906],[-69.9886038143453,41.6371589101662],[-69.9886018002376,41.6373254747406],[-69.9883825924172,41.6388860877785],[-69.987850526626,41.6403051245486],[-69.9872718189081,41.6414720305974],[-69.9860484486003,41.6432826698383],[-69.9846469880841,41.6448797575413],[-69.9830580466121,41.6461024235197],[-69.9837141864255,41.646419594644],[-69.9854064816129,41.647342103209],[-69.9868733134141,41.6486166507086],[-69.9878441354148,41.6488591912],[-69.9897244486353,41.6495477544383],[-69.9915620740803,41.6505666510184],[-69.9921423629601,41.6509575970982],[-69.9934159410909,41.652065785014],[-69.9944544721409,41.6527199698026],[-69.9962553681145,41.6540467206344],[-69.998456946773,41.6562612151302],[-69.9990252028604,41.6567493091092],[-69.9995935563432,41.6573308724455],[-70.0032781243466,41.6597595118006],[-70.00417400245,41.6601253713204],[-70.0056816206971,41.6608852132054],[-70.0060309153751,41.6610608952261],[-70.0062166622561,41.6611748157311],[-70.007138579996,41.661373232102],[-70.0090194708456,41.6620613861917],[-70.0095898507435,41.6623351369126],[-70.0101413277648,41.6626163813035],[-70.0115348589344,41.6619114442412],[-70.0134466488506,41.6612728780367],[-70.0156553446095,41.6608729129808],[-70.0161135138925,41.6608236918161],[-70.0201855992899,41.6609105168117],[-70.021164737718,41.6605833185409],[-70.0217352476129,41.6604478280317],[-70.0225664079135,41.6602672747863],[-70.0236240336442,41.6598369788927],[-70.0254371937923,41.6592391659366],[-70.0274676878363,41.6588590848485],[-70.0285437403696,41.6587683757916],[-70.0313801051144,41.6586254815114],[-70.0333416425098,41.658747056718],[-70.033627569273,41.6586516903364],[-70.0356579959906,41.6582714630325],[-70.037745737522,41.6581615418274],[-70.0381140369168,41.65817077909],[-70.0403426093222,41.6582506416021],[-70.0423564584329,41.6574942206971],[-70.0430275739116,41.6573350604045],[-70.0446876546977,41.6570366444631],[-70.0454178958192,41.6569328861351],[-70.0464298090893,41.6567082769239],[-70.0491142312808,41.6562067690166],[-70.0515808844975,41.6559455550777],[-70.0534716080778,41.6558937096351],[-70.054128048815,41.6557708573028],[-70.05621567491,41.6556606870902],[-70.0567073993823,41.6556004732666],[-70.0575733326841,41.6549726585406],[-70.0593074454412,41.6540947900811],[-70.0612185245725,41.6534554209774],[-70.0632486222565,41.653074701131],[-70.0653361446444,41.6529643635054],[-70.0658700796581,41.6529801031451],[-70.0663581197618,41.6530025555731],[-70.0679054585239,41.6531498302747],[-70.0699174627632,41.6535814463445],[-70.071117766193,41.6539842805786],[-70.0722497261923,41.6544211824957],[-70.0733811690028,41.6547150705152],[-70.0740440544785,41.6546885358761],[-70.0766933237569,41.654808350205],[-70.0781576591925,41.6547332884473],[-70.0819173068364,41.6543772691783],[-70.0836782355414,41.6536602830579],[-70.0855890580323,41.6530205044623],[-70.0876189967871,41.6526393496108],[-70.0897064628426,41.6525285646653],[-70.0905334830834,41.6525601593699],[-70.0931808601827,41.6527302636273],[-70.0982648260987,41.6517552479536],[-70.0996185993582,41.6513019700471],[-70.1007594243805,41.6510875631668],[-70.1011582314928,41.6507981049257],[-70.1028916347467,41.649919481973],[-70.1048021513485,41.6492794705852],[-70.106831856876,41.6488979727991],[-70.107600752245,41.6488567839777],[-70.108171381479,41.6484427991342],[-70.1099046245962,41.6475640692736],[-70.1118150026497,41.6469238500375],[-70.1138447096881,41.6465423185681],[-70.1159318132198,41.6464309607703],[-70.1163217797819,41.6464402092036],[-70.1183426828265,41.6465143090005],[-70.1188290470537,41.6463513795529],[-70.1208503895006,41.6459707027304],[-70.1214499128007,41.6458986413717],[-70.122552096547,41.6454803134158],[-70.1246290686965,41.6448661218668],[-70.1290354855817,41.6439057688444],[-70.1300952800493,41.643484066216],[-70.131981233489,41.6428814877257],[-70.1344208641715,41.642281027243],[-70.135820314345,41.6420057148246],[-70.1385351762815,41.6416004484307],[-70.1406954284814,41.6415165284625],[-70.1426637902692,41.6413391496962],[-70.1441884829752,41.6412971000766],[-70.1459470416328,41.6413501131707],[-70.1475177016901,41.6412799315486],[-70.1508465153669,41.6414810235333],[-70.1556642100058,41.6422882649466],[-70.1563169491732,41.6424107898916],[-70.1581174441385,41.6425952173984],[-70.1583903155518,41.6426232002084],[-70.1587955877801,41.6426572465379],[-70.1634796858364,41.6428806994968],[-70.1647760459101,41.6429032240647],[-70.1660443838976,41.6427267630599],[-70.1666464661168,41.6426544944051],[-70.1727802124229,41.6420396562867],[-70.1776175562575,41.6411325265931],[-70.1787005728821,41.6409689874722],[-70.1812626797303,41.6406728565425],[-70.1826756669054,41.6405733472414],[-70.186339878118,41.6404784223482],[-70.1869757538209,41.6403832952082],[-70.1874271482479,41.6395207348283],[-70.1886535839058,41.6382488515849],[-70.1901553724268,41.637156348096],[-70.1918871813131,41.6362764590733],[-70.1937964012265,41.6356348628626],[-70.1955856531114,41.6352827965166],[-70.2018729503159,41.6344267496074],[-70.2029903898776,41.6341075051663],[-70.2040043621944,41.633657584788],[-70.2061881023033,41.63254167025],[-70.2066911225118,41.6322980576465],[-70.2099524887068,41.6308043392147],[-70.210798656223,41.6304515050905],[-70.2120081672301,41.6299885142865],[-70.2122467731573,41.6298150884372],[-70.2126026834854,41.6295557365277],[-70.2135093631476,41.6288957023422],[-70.2152406273292,41.628015457621],[-70.2171493665888,41.6273734692741],[-70.2191672328811,41.62699155948],[-70.2199777251878,41.6268931746784],[-70.2215783952914,41.6265594705066],[-70.223167025071,41.6257517001525],[-70.2237520843428,41.6255225317207],[-70.224056609631,41.6254111425839],[-70.2262846609256,41.6247923064466],[-70.2284769331417,41.624341231425],[-70.2302078682349,41.6234607587809],[-70.2321163214925,41.6228185191456],[-70.2338535239516,41.6224900387806],[-70.2376302751116,41.6215595586096],[-70.2397914104171,41.620687051026],[-70.2425919730046,41.6188671013005],[-70.2434683469202,41.6181806551226],[-70.2434244109236,41.6174175781525],[-70.2436373260125,41.6158564803542],[-70.244208348497,41.6143467033983],[-70.2445858835929,41.613683370757],[-70.2452590795427,41.6126209805539],[-70.2454911270567,41.6119538776996],[-70.246448281539,41.6100830397269],[-70.2483409311256,41.6073423125727],[-70.2493469525422,41.606131028911],[-70.2499569864789,41.6055119289465],[-70.2513283233799,41.6043463372821],[-70.2521214572629,41.6037793029171],[-70.2528194310756,41.6033175617633],[-70.254549582854,41.6024367198716],[-70.256457045202,41.6017940703361],[-70.2574252007208,41.6015755875422],[-70.2624546306171,41.6006107181228],[-70.2650095021373,41.6003351544859],[-70.2656189735251,41.6003192658803],[-70.2662086659555,41.6003150451416],[-70.2682888538725,41.6004743009432],[-70.2703005462859,41.6009024608709],[-70.2721823585339,41.6015863488409],[-70.2738777371757,41.6025044705609],[-70.2753347806455,41.603629981918],[-70.2757186154721,41.6040033004925],[-70.2772724559266,41.6055980604791],[-70.2780635186528,41.6065234024115],[-70.2789198053399,41.6079553092786],[-70.2794322421923,41.6094768928711],[-70.279585810627,41.6109181729519],[-70.2795855053852,41.6116452786868],[-70.2798271326836,41.6123637265879],[-70.2799219202578,41.6127980381356],[-70.2805323929977,41.6138187607663],[-70.2806873915452,41.6142672243049],[-70.2810195041162,41.6148223090539],[-70.2815320441436,41.616343973238],[-70.2816564577192,41.6171517448775],[-70.2816866492163,41.6174756881882],[-70.2815302856645,41.6196823516993],[-70.2813782830734,41.6203233692427],[-70.2811593810973,41.6209232393108],[-70.2817469013536,41.6230224405269],[-70.2817778331572,41.6233644006003],[-70.2814884252656,41.6254672577534],[-70.2817835143573,41.6256695988538],[-70.282263258167,41.6260191591045],[-70.2846047281125,41.6260904109639],[-70.2849637428825,41.6260047448611],[-70.2866935575718,41.6256945595049],[-70.2887797961198,41.6255800308428],[-70.2897275701551,41.6256526164864],[-70.2898386010183,41.625473709961],[-70.2904092869962,41.6246648831657],[-70.2916333888286,41.623391980049],[-70.2931330697892,41.6222981171608],[-70.294863061357,41.6214165702464],[-70.2967708043212,41.6207732453336],[-70.2982823162433,41.6204600343431],[-70.3005542682823,41.6201069271106],[-70.3052945710162,41.619224894725],[-70.305636181762,41.6191615821608],[-70.3063566157023,41.6190019384291],[-70.3068779181991,41.6189353765853],[-70.307209423689,41.6187509340468],[-70.3077664656564,41.6184404537321],[-70.3095258828652,41.6177149517788],[-70.3111729279075,41.6171649139942],[-70.3121050030523,41.6168882294924],[-70.3141324398439,41.6165030328816],[-70.3158549945424,41.6163881777429],[-70.3162510540175,41.6163832990501],[-70.316614389044,41.6163831207168],[-70.3186951025594,41.6165415425577],[-70.3207076367615,41.616968810092],[-70.3224023877416,41.617569415646],[-70.3239567634237,41.6182360760742],[-70.3262810993316,41.6195353021119],[-70.3270124906814,41.6200583528862],[-70.3280311531001,41.6208837566354],[-70.3292073958838,41.6221817929505],[-70.329780084851,41.623058863289],[-70.3308727889023,41.6237443546749],[-70.3321792430831,41.6247325072904],[-70.3327214665601,41.6252108058979],[-70.3337152028366,41.6258912910284],[-70.3340723330536,41.6260699094214],[-70.3347696306037,41.6263308923313],[-70.3355139692564,41.6265461604186],[-70.3404275344392,41.6274985352019],[-70.3411188731393,41.6275540286093],[-70.3415343292103,41.6275154925394],[-70.3429673152188,41.6272469900264],[-70.3477775209473,41.6261635514618],[-70.3488337197199,41.625863062205],[-70.3514872411752,41.6248717823984],[-70.3517463187816,41.6247455476408],[-70.3524094592759,41.6241371579689],[-70.3523155388366,41.6231845410859],[-70.3525258153572,41.6216233306063],[-70.3530943219092,41.6201129178037],[-70.3540035297416,41.6186994031058],[-70.3549644082108,41.6176617928596],[-70.3564256685314,41.6162988415315],[-70.3568406116845,41.6151960230648],[-70.3573207456635,41.6143859592254],[-70.3574797131313,41.6139632732494],[-70.3583887367763,41.6125497234936],[-70.3588057637444,41.6120602943541],[-70.3599628466519,41.6107950032936],[-70.3608572739855,41.6101083878118],[-70.3614078571294,41.6095348370642],[-70.3625744987449,41.6086511294099],[-70.3638545037195,41.6078068118942],[-70.364707660742,41.6073725056505],[-70.3650689054322,41.6071082354036],[-70.3667974953165,41.6062255940597],[-70.3677720890041,41.6058959357308],[-70.3695121730217,41.6052075913928],[-70.3699366589532,41.6049472667122],[-70.3731985104508,41.6035479721055],[-70.3748275450482,41.6029664980574],[-70.3795074791598,41.6016091508128],[-70.381737852828,41.6007824670765],[-70.3831840260881,41.6003324285732],[-70.3883656155506,41.5990089136901],[-70.3897298666001,41.5987262813534],[-70.3930219333347,41.5981995954992],[-70.3940107420494,41.5980735300059],[-70.3966406342694,41.5978228468321],[-70.3981908368161,41.5975491224857],[-70.3988308098794,41.5974782498851],[-70.4007367193227,41.597382440487],[-70.4028171424057,41.5975393234681],[-70.4048295197484,41.597965100142],[-70.4067128017231,41.5986466705803],[-70.4084099080858,41.5995628729325],[-70.4098692477931,41.6006866579418],[-70.4110467781992,41.601983846734],[-70.4119060973884,41.60341475099],[-70.4124215365365,41.6049358219504],[-70.4125771861961,41.6065006303982],[-70.4125639021631,41.6068235759838],[-70.4125328673748,41.6073015850815],[-70.4121681016957,41.6091119113845],[-70.4122106071802,41.6095405606848],[-70.4121395341342,41.6104116724909],[-70.4121090060467,41.6106195586777],[-70.4119712956456,41.6113098573308],[-70.4114042566629,41.6128205642133],[-70.4104964000932,41.6142345377132],[-70.4093943142844,41.6153838064038],[-70.4095495871811,41.6157353818822],[-70.4096403293295,41.6160857077834],[-70.4097043890595,41.6163541990516],[-70.409860000058,41.6179190112815],[-70.409651132714,41.6194804174912],[-70.4095466783614,41.6197585475032],[-70.4106818433352,41.6192009933756],[-70.4116273290593,41.6188380848787],[-70.413885583268,41.6182383927961],[-70.4151805355377,41.6169006619706],[-70.415393971089,41.6167181117371],[-70.4186506153909,41.6147643357751],[-70.4181805344211,41.6139820753138],[-70.4176647641007,41.6124611193042],[-70.4175079137203,41.6110087707482],[-70.4175090645665,41.6106711223574],[-70.4177177099815,41.6091097917788],[-70.4182845671058,41.6075990534239],[-70.4191921575552,41.6061850177582],[-70.4204133440431,41.6049107294039],[-70.4219103900123,41.6038151688837],[-70.4231573051337,41.6031449205339],[-70.4235533031595,41.6029595834069],[-70.4255734853392,41.6022020869029],[-70.4260113174351,41.6020751241683],[-70.4261180454516,41.6017913288159],[-70.4270252606186,41.6003772295126],[-70.4273377731508,41.6000037129577],[-70.4289952444024,41.5981385431641],[-70.4292034751378,41.5972282868385],[-70.4293639066317,41.5966439832444],[-70.4297906112818,41.5953142062297],[-70.4307426492843,41.59336763076],[-70.4310781986144,41.592868171998],[-70.431475543097,41.5923238221206],[-70.4326962207803,41.5910494019179],[-70.4333284652969,41.5905864894757],[-70.4336876075124,41.5893884268265],[-70.4340835477989,41.5886087746537],[-70.4359653608241,41.5861541252555],[-70.4375196234077,41.584711699023],[-70.4385424407576,41.5840712458582],[-70.4386883322582,41.5834091780505],[-70.4390536773019,41.5826027512754],[-70.4397297706792,41.5814030386682],[-70.4413751212056,41.5789867054878],[-70.4415508357704,41.5787379357097],[-70.4434998803829,41.5760834499304],[-70.4443001716977,41.5751381552504],[-70.4468663584721,41.5724854766075],[-70.4479847828927,41.5706640256652],[-70.4490195670913,41.5693033459007],[-70.4514253455853,41.566696896245],[-70.4523946954676,41.5657806604765],[-70.4528170477216,41.5654306006006],[-70.4555233523531,41.562594439608],[-70.4560927923608,41.56204420679],[-70.4598065365563,41.5587275555017],[-70.4620514047873,41.5571740750125],[-70.467115158706,41.5526888951215],[-70.4685782146117,41.5515981025424],[-70.4701916910211,41.5505868122105],[-70.4710849384659,41.5500782509023],[-70.4732159942513,41.5489787745733],[-70.4750476809475,41.5482018773405],[-70.4779392089698,41.5472160556703],[-70.4792077176375,41.5466186064042],[-70.4807267077557,41.5460132175094],[-70.4814873830248,41.5457600039789],[-70.4823687593149,41.5454984129866],[-70.4843929097975,41.545110180519],[-70.4852887005849,41.545049578657],[-70.4855156788566,41.5449300510144],[-70.4879726955886,41.5439350508025],[-70.4888250165731,41.5436809847641],[-70.4921560928786,41.5430836461512],[-70.4931298458055,41.543016921713],[-70.4960964211745,41.5430904648036],[-70.4967808008485,41.5431341518121],[-70.4979461771108,41.5429762465999],[-70.5047088788444,41.542317026106],[-70.5122412207858,41.5412297443069],[-70.5148041004473,41.5407877621042],[-70.5155507509369,41.5406777260001],[-70.5195157405432,41.5401903416493],[-70.5200103686569,41.540070806069],[-70.521092969052,41.5396361538355],[-70.5227744536818,41.5390805908354],[-70.5247981564411,41.5386916381235],[-70.5268811276453,41.5385728304456],[-70.5289599494443,41.5387273135482],[-70.5309713158473,41.5391508553924],[-70.5328542075533,41.5398304238495],[-70.5337074296935,41.5402479160083],[-70.533921065626,41.5403622853866],[-70.5347648388249,41.540859015125],[-70.5362250558858,41.5419811751677],[-70.5374040626908,41.543277142068],[-70.5378269356904,41.5438968765363],[-70.5380700834837,41.5442900745637],[-70.5384724457786,41.5453829776753],[-70.5390261199132,41.544802939997],[-70.5405197323248,41.5437058190011],[-70.5422441903088,41.5428206017483],[-70.5441801901886,41.5421644029563],[-70.5444162496606,41.5421028213466],[-70.5451751372577,41.54182044567],[-70.5465226985549,41.5413934528648],[-70.5485463301281,41.541004076814],[-70.5491269880452,41.5409470837976],[-70.5499634125304,41.5406625345613],[-70.5519869987826,41.5402731872185],[-70.5524791478998,41.5402198499855],[-70.5532671098318,41.5401476382877],[-70.5541491795998,41.5399839135491],[-70.5557181624022,41.5398461569131],[-70.5577418077346,41.5394567079995],[-70.558466184304,41.5393962681266],[-70.5595386484627,41.5392250765821],[-70.5616215737352,41.5391055414655],[-70.5638237899556,41.5392774228962],[-70.5646006820109,41.5392393469051],[-70.5660702523476,41.5390865820359],[-70.5663288330954,41.5389986684946],[-70.5670149705296,41.5387650718909],[-70.5682407772589,41.5385292389481],[-70.568522226507,41.538384692586],[-70.5704247408204,41.5377367789536],[-70.5723576964431,41.5373592039351],[-70.5744208225014,41.5368122110524],[-70.5749150990174,41.5365584543023],[-70.5753282888836,41.5364177560306],[-70.5768408258948,41.5359545630322],[-70.577267769502,41.5358235139025],[-70.578840407976,41.5355206047205],[-70.5799453715646,41.5354226879378],[-70.5804033707291,41.5353982164822],[-70.5813810543149,41.5353763291422],[-70.5834599020717,41.5355299042593],[-70.5846447607171,41.5357443064514],[-70.587398268479,41.5363545294284],[-70.5879755510602,41.5363101869739],[-70.5894666530764,41.5362355382352],[-70.5906612503166,41.5362895037381],[-70.5909954019051,41.5362860572412],[-70.5919589282346,41.5357838707686],[-70.5930792831201,41.5352660917896],[-70.595666387936,41.5342124619815],[-70.5972347050396,41.5336796621173],[-70.5980569525403,41.5334520939846],[-70.6019752601032,41.5328984395777],[-70.6034363878833,41.532877935279],[-70.6074931168914,41.5333493900242],[-70.6080976836672,41.5335027079822],[-70.6087486473126,41.5334650518826],[-70.6109640679692,41.5336467477551],[-70.6114405058085,41.5335609784295],[-70.6118080497451,41.5335160436465],[-70.612837419599,41.5331678950905],[-70.6132024266007,41.53307224347],[-70.6151900308137,41.5326910377561],[-70.6172726394834,41.5325704816295],[-70.6178864973315,41.5326157716377],[-70.6181927091664,41.5325686288656],[-70.619028518813,41.5324636492797],[-70.6202542275484,41.5323425976015],[-70.6204923231867,41.5322904187123],[-70.6207881865457,41.5321588213815],[-70.623519898076,41.5313616648153],[-70.6238638987512,41.5312579834459],[-70.6246346896659,41.5310247843758],[-70.625637042928,41.5308394645005],[-70.6260432055954,41.5307109541977],[-70.6268798735538,41.5304258440092],[-70.6278092332371,41.5302056383973],[-70.6288760938329,41.5298216176607],[-70.6293486213709,41.5296316575471],[-70.6304597287426,41.5292085240302],[-70.6318077016631,41.5285204939163],[-70.632961378565,41.5277645146377],[-70.634504240013,41.5265084400964],[-70.6355199262032,41.5255403298857],[-70.6369313464559,41.5236096348355],[-70.6379208188964,41.5225889914356],[-70.6381537407093,41.5222227681538],[-70.6384970186561,41.521837573431],[-70.6387333491999,41.5214668729041],[-70.6389635404529,41.5211962494704],[-70.6392254798238,41.5207024779179],[-70.6393450006266,41.5205541886034],[-70.6406953974326,41.5186010162651],[-70.6408374531098,41.5184512753584],[-70.6409338921201,41.5182904742615],[-70.6417613732788,41.5171442275229],[-70.6419058505562,41.5169742447216],[-70.6418534694326,41.516466295136],[-70.6420563450525,41.5149044707379],[-70.6424096699227,41.5138441334728],[-70.6427755328228,41.5129740536424],[-70.6443309874036,41.5105806551157],[-70.6446652706963,41.5102157237539],[-70.6474984905928,41.5080333263062],[-70.6479566243623,41.5077834861149],[-70.649104414457,41.5072298922666],[-70.6510051879957,41.5065807191389],[-70.6528382217996,41.5062145431172],[-70.6535442683552,41.5061185180176],[-70.6556259415971,41.5059972583463],[-70.6577038940781,41.5061494727722],[-70.6597152075818,41.506570643602],[-70.6615985048841,41.5072480753588],[-70.6620920329661,41.5074931165842],[-70.6633774367333,41.5080322131635],[-70.6640775551023,41.5084003218724],[-70.6645080939254,41.5085903245409],[-70.6646376544903,41.5083639289899],[-70.672141830596,41.5158848970107],[-70.6741185207981,41.5173320053349],[-70.6757272637384,41.5174191543933],[-70.6767383416685,41.5170483285966],[-70.6782399128025,41.5176640954706],[-70.6794403659282,41.5182023926416],[-70.6811498854524,41.5176896314749],[-70.6881545308297,41.5167951758184],[-70.6913102765003,41.5179139340803],[-70.694459509668,41.5255372539817],[-70.70280279244,41.5301701459192],[-70.702718374986,41.5301847696033],[-70.6991641448274,41.5303893487175],[-70.6986462638072,41.5303609329785],[-70.6986710894587,41.5311354445294],[-70.6983366890861,41.5320047519281],[-70.6980460165566,41.5326634057215],[-70.6971457442718,41.5340796599918],[-70.6959314160941,41.5353569139099],[-70.6945400901621,41.5363825006025],[-70.6943746793594,41.5366429806291],[-70.6931602462511,41.5379202950202],[-70.692446690783,41.5384942632681],[-70.6921722261398,41.5386966094241],[-70.6913949159868,41.5392216764186],[-70.6896726165767,41.5401092477205],[-70.6877712393049,41.5407591591899],[-70.6867439644292,41.5409937403397],[-70.6861357156592,41.5411103942509],[-70.6824052504964,41.5413711751658],[-70.6819797062369,41.5413506420948],[-70.6792688853965,41.5407756244089],[-70.678668602698,41.5415321154564],[-70.6782857450696,41.5425659678406],[-70.6776245093031,41.543661910949],[-70.6772278706655,41.5442172811408],[-70.6769881344283,41.544537434204],[-70.6757732063127,41.545814472788],[-70.6742818623819,41.5469133717891],[-70.6725591192224,41.5478006836153],[-70.6706573401804,41.548450308571],[-70.6700959609307,41.5485587559339],[-70.6691970669713,41.5492212651522],[-70.6678912189253,41.549893751407],[-70.6676031155548,41.5504718539324],[-70.6672370407882,41.5510357879794],[-70.6669975678149,41.5513851853059],[-70.6664597716456,41.5521291965219],[-70.6665745546077,41.5537546213581],[-70.6666929636277,41.5543644273764],[-70.6670271778868,41.5554231326525],[-70.6673337379065,41.5579740384353],[-70.6671507354606,41.5605799696932],[-70.666964263703,41.5617552379956],[-70.6663369739033,41.5633815202301],[-70.6660009600561,41.5657369176007],[-70.6653881084931,41.5677684790085],[-70.6652050991738,41.5681588058947],[-70.6637697778867,41.5702759711779],[-70.6634349303413,41.5706409567042],[-70.66267016208,41.5713877817471],[-70.6611779979374,41.5724865091604],[-70.6599833791794,41.5731012045386],[-70.6597624203202,41.5736020811037],[-70.6596075003263,41.5739312902113],[-70.6587056782277,41.5753472398096],[-70.6574898011792,41.5766240834625],[-70.6559974261752,41.5777227429017],[-70.6542736010136,41.5786097777675],[-70.6537690201479,41.5787989749067],[-70.6539687344552,41.5802743215352],[-70.6543805376106,41.5809549361064],[-70.6547157099404,41.5814819115509],[-70.6552874102408,41.5825514230755],[-70.6556547981287,41.583392153194],[-70.6558778649959,41.5837280380359],[-70.6567648101134,41.5855230820797],[-70.6577385522131,41.5884003182772],[-70.6580026815879,41.5894280974592],[-70.6580561885465,41.5897278757175],[-70.6585368990886,41.5911051714238],[-70.658616223378,41.5915672119014],[-70.6588961905917,41.5922861802187],[-70.6599004317285,41.5942801538067],[-70.662178562031,41.5981725487331],[-70.6627706799152,41.5988206960449],[-70.6636354588159,41.6002496896519],[-70.663975153148,41.6011053142571],[-70.6644019101804,41.6024140268085],[-70.664745885966,41.6045522038937],[-70.6647456749601,41.6051476339362],[-70.6645430680829,41.6067094114435],[-70.6639819127429,41.608221370906],[-70.6636715439208,41.608708632448],[-70.664011750873,41.6103368899474],[-70.663991772705,41.6107734348925],[-70.6639615090145,41.6111615529271],[-70.6637788443351,41.6122867841685],[-70.663217742018,41.6137987407726],[-70.6623154380933,41.6152147195111],[-70.6612085025716,41.6163939079659],[-70.6609163791763,41.6166562881263],[-70.6594231296037,41.6177549929164],[-70.6586922073891,41.6181625968967],[-70.6586309293389,41.6191182740947],[-70.6578557226913,41.6218959284283],[-70.6573063268755,41.6229756639482],[-70.6564281577234,41.6243434255132],[-70.6552113043883,41.6256202452034],[-70.6550197827796,41.6257836843729],[-70.6544710809354,41.6262415979987],[-70.6539134204874,41.6266049907393],[-70.6548954207051,41.6278131543258],[-70.6553504299881,41.6281992045142],[-70.6562741066948,41.6291745301216],[-70.6574969196598,41.6294357099174],[-70.6593838092851,41.630113179828],[-70.6612013802136,41.6311012835488],[-70.6614155531278,41.6312424249231],[-70.6627640275824,41.6322872785767],[-70.6639472608138,41.6335818411632],[-70.6648126557725,41.6350108267841],[-70.665233121794,41.6361304052055],[-70.6653249245447,41.6364535108361],[-70.6654261628744,41.6368538495425],[-70.6655880768145,41.6384183046005],[-70.6653853839734,41.6399801736444],[-70.6651811558127,41.6406562219943],[-70.6650585563181,41.6410002633275],[-70.6637819651008,41.6432733850415],[-70.663385302218,41.6437741486199],[-70.6630418244,41.644081086978],[-70.6631753542891,41.6453713463693],[-70.6629727005492,41.6469332119301],[-70.6628433525932,41.6473874998405],[-70.6626606310901,41.64795736559],[-70.6622285481205,41.6490149394541],[-70.6613257256055,41.6504309101979],[-70.6601084738012,41.6517077821562],[-70.6585248354319,41.6528610078594],[-70.6582196320269,41.6530455813968],[-70.6565833679154,41.6538781200394],[-70.6555937447755,41.6542151781792],[-70.656439476471,41.6547206341655],[-70.6583927692678,41.6556264977506],[-70.6611754035241,41.6574089498592],[-70.6623049103726,41.6583925833952],[-70.6640374952757,41.6603810690964],[-70.6650739725964,41.6620048920422],[-70.6655662824828,41.6628960244699],[-70.6660883523455,41.6644158487269],[-70.6662503510837,41.6659803925009],[-70.666161705271,41.6669864746026],[-70.6660083636089,41.6679257232062],[-70.6658942435696,41.6684814207456],[-70.6653325793435,41.66999329641],[-70.664429649481,41.6714092923414],[-70.6658926202309,41.6717363374767],[-70.6664425475066,41.6719266600938],[-70.6675130598256,41.6723480505317],[-70.6692158504058,41.6732603532542],[-70.670681448103,41.6743807832594],[-70.670883510879,41.6745702584819],[-70.6712797996048,41.6749518519189],[-70.6731207074916,41.6774705944693],[-70.6732507103408,41.6777449890209],[-70.6737730829097,41.6792648677042],[-70.6739351883615,41.6808293092756],[-70.6739194505192,41.6812107820784],[-70.6738880403938,41.681661831597],[-70.6736640882604,41.6824666884076],[-70.674887832478,41.6823956145133],[-70.676034466607,41.6824641604234],[-70.6765572565598,41.6824954972491],[-70.6769844646898,41.6825436079588],[-70.6773985318433,41.682595583786],[-70.6774157830668,41.6825990399657],[-70.6763814702206,41.6840485749387],[-70.6717364541256,41.6890969523558],[-70.6691392970094,41.6919727867617],[-70.6642664931281,41.6971543528273],[-70.6609873954142,41.7006305115939],[-70.647595215555,41.7147352900012],[-70.6434033272365,41.7191467409818],[-70.6396687718156,41.722888451553],[-70.6359305029267,41.7268989629638],[-70.6341051625661,41.728972306764],[-70.6322841601633,41.7307086363568],[-70.6312842010894,41.7315761080101],[-70.6245641681218,41.7366405227788],[-70.6193992250051,41.7396975299281],[-70.6164186489186,41.7407515901199],[-70.6137049198979,41.7420096095971],[-70.6094628432231,41.7432556244499],[-70.604414638446,41.744293186479],[-70.6002691527786,41.7450679911298],[-70.5946812463434,41.7461008590814],[-70.5910690709327,41.7472836688483],[-70.5883609262149,41.7480701346847],[-70.5851059386904,41.7493901355517],[-70.5832897830542,41.7506546439366],[-70.5803872474001,41.752448978649],[-70.5742127928315,41.7567073894619],[-70.5727558452967,41.7579746517522],[-70.5668795269408,41.7663414795949],[-70.5655960920981,41.7680136346924],[-70.5644615126134,41.7690521235152],[-70.5637732164079,41.7696818844998],[-70.5623628391684,41.7708148796241],[-70.5609084248688,41.7718800544306],[-70.5591869430908,41.7727408653707],[-70.5574653962534,41.7736355053165],[-70.555655596879,41.7743943275367],[-70.5535788551781,41.7749493938182],[-70.551772967604,41.7754391465195],[-70.5498346105561,41.7757595705688],[-70.5465923700269,41.7760689691953],[-70.5441197056178,41.7760482527518],[-70.5426805109176,41.776069935424],[-70.53913269862,41.775771121247],[-70.5261614393177,41.7742135922781],[-70.5193811141778,41.7735831398261],[-70.5140845968177,41.772998807219],[-70.5119281133838,41.7728794607824],[-70.5094082789357,41.7729920120921],[-70.5059392314389,41.7734328937392],[-70.5037271495445,41.7739858740206],[-70.5003434622355,41.7747305909157],[-70.4833108357113,41.7810015392275],[-70.4828205922179,41.7795615455314],[-70.4827951943676,41.7794870347287],[-70.4813224158185,41.7788171165069],[-70.4793695937637,41.7777101413896],[-70.4788498420181,41.7773475702691],[-70.4771895107357,41.775798643434],[-70.4768908702213,41.7755713990246],[-70.4766137962156,41.7754096275377],[-70.4753636733728,41.7747940344766],[-70.4747473848,41.7745509614064],[-70.4715322276253,41.7735838434303],[-70.4682792005362,41.772122773283],[-70.4678382955253,41.7718447835303],[-70.4663740242175,41.770721746855],[-70.4654419609524,41.7696991489605],[-70.4651922599272,41.7694250457488],[-70.4628878850383,41.7689150764224],[-70.4617666379685,41.7685925097477],[-70.4522495072181,41.7654383809328],[-70.4464005247486,41.7636291624282],[-70.4460258620131,41.7635075618231],[-70.4427890867835,41.7624088624467],[-70.4369289350778,41.7606238102644],[-70.4266464359545,41.7580664472688],[-70.4249605830153,41.7575378493729],[-70.4238912131663,41.7571282349175],[-70.4223954183819,41.7563137991981],[-70.4220564119099,41.7562008301355],[-70.4200093895933,41.755410498528],[-70.4187833950428,41.7550865111931],[-70.4133089510596,41.7539893836305],[-70.4129502239612,41.7539133865201],[-70.409340593865,41.7530993834255],[-70.3980558429211,41.7510734918433],[-70.3924554129219,41.7502638932875],[-70.3920821223952,41.7502051566547],[-70.3873109808071,41.749397154654],[-70.3789705184166,41.7484143989914],[-70.3787252995956,41.7483832614167],[-70.3732273130851,41.7476475563304],[-70.3717703005669,41.747381552295],[-70.3620957165351,41.7467973591882],[-70.3613480211951,41.7467341496363],[-70.3552042502189,41.7460709809894],[-70.3511113406118,41.7459127096323],[-70.3504147410661,41.7458708335549],[-70.3481235010071,41.745681642932],[-70.3473300679909,41.7455959079181],[-70.3462186745761,41.7454473379165],[-70.3377613964678,41.7453282077173],[-70.3365534867424,41.7452651798801],[-70.3344885226081,41.7450791962607],[-70.3288237209264,41.7450565588864],[-70.3284401639522,41.7450509030078],[-70.3031197785768,41.7443413558246],[-70.3026625435265,41.7443218723907],[-70.3003783034026,41.7441920322043],[-70.2979414809578,41.7443250849151],[-70.2945635991538,41.7441520638399],[-70.2934027773832,41.7439669763477],[-70.2914594626195,41.7435107370663],[-70.2889535183521,41.7431931834934],[-70.2863790819575,41.7426407297962],[-70.2856461409364,41.7424145594305],[-70.2842262198691,41.7418917402329],[-70.282638329023,41.7412068288862],[-70.2803029111319,41.7398924955307],[-70.2794787101588,41.739298376949],[-70.2784965033393,41.7384994175077],[-70.2773191512665,41.7372007692452],[-70.277166517505,41.7369723986555],[-70.2744938170172,41.7362086336443],[-70.273312064028,41.7358154715335],[-70.2715718708628,41.7351501025419],[-70.2706545606704,41.7347603052758],[-70.2692494637286,41.734100768629],[-70.2670185150526,41.7327512681228],[-70.266591384618,41.7324224819085],[-70.2650817100839,41.7309963814482],[-70.2641057300525,41.7298540220405],[-70.2637341587614,41.729389050103],[-70.2628765850456,41.7279570312039],[-70.2623635922747,41.7264353754456],[-70.2622644782926,41.7258557615492],[-70.2622037483889,41.7253795758647],[-70.2621507225606,41.7243940916723],[-70.2616752198521,41.7245870187421],[-70.2613678101261,41.7255083426161],[-70.2610620734967,41.7259709967527],[-70.2606109583535,41.7265913565213],[-70.2593842615564,41.7278639233919],[-70.2580491968978,41.7288528254757],[-70.2572243018808,41.729375087909],[-70.2551792303777,41.730419776569],[-70.2549850022361,41.7304986931178],[-70.2544020275291,41.7309228206255],[-70.2526685128675,41.731803750074],[-70.2513534200754,41.7322778285358],[-70.2510140845302,41.7323815301468],[-70.2498709926379,41.7339734929512],[-70.2491330010943,41.7348455756461],[-70.2465702992535,41.7375215297792],[-70.2459251424367,41.7381369061365],[-70.2447967553947,41.7391217199602],[-70.2430287617879,41.7403803145743],[-70.2422041102157,41.7408579915144],[-70.2401761670822,41.7418075188623],[-70.2386713431639,41.7423642672281],[-70.2382341558306,41.7425851666999],[-70.2371353352259,41.7432381485635],[-70.2351703279181,41.7441893667894],[-70.2337087568459,41.745252043445],[-70.2325870939985,41.7458214367975],[-70.2323351659042,41.7460049359403],[-70.2306008174729,41.7468855276066],[-70.2287698511857,41.7475072160334],[-70.2276853070376,41.7481586471648],[-70.226891661981,41.748596041589],[-70.2249986065936,41.7495529344609],[-70.2240252841328,41.749996221685],[-70.2218267116328,41.7508934514357],[-70.2209749452873,41.7512091324744],[-70.2114106529134,41.7544059878702],[-70.2086859448388,41.7553830974477],[-70.2082216971711,41.7555409954828],[-70.1995170567129,41.7583296113551],[-70.1943555287561,41.7601401810431],[-70.1931937649601,41.7604937946869],[-70.1911609112299,41.7608767411718],[-70.1890701994989,41.760989479292],[-70.1869849835538,41.760828683777],[-70.1849688112324,41.7603991403046],[-70.1838508704467,41.7600299180913],[-70.1834861819742,41.7598923461215],[-70.1830640737539,41.7599674274571],[-70.180642847608,41.7605770236682],[-70.1798780902962,41.7608618927845],[-70.1781813837781,41.7616931499154],[-70.1752791199518,41.7627304412409],[-70.1750048599538,41.7627964968042],[-70.173529417691,41.7629695027154],[-70.1698925480668,41.7641556824862],[-70.1690269790221,41.7644084169012],[-70.1669938558447,41.7647909320625],[-70.1649029733926,41.7649032266383],[-70.1643500533227,41.7648872003804],[-70.1637415240141,41.7648502588056],[-70.162288031693,41.7651083809604],[-70.1601970103326,41.765220587756],[-70.1594135429506,41.7651921909433],[-70.1579353087225,41.7652642916114],[-70.1559024894766,41.7656505755376],[-70.15381143915,41.7657626651314],[-70.1532806831436,41.7657276672766],[-70.152607863662,41.765978594348],[-70.1497422030835,41.7673201213546],[-70.1466382599307,41.7683497984215],[-70.1448051414194,41.7687377181189],[-70.1434339469226,41.7689639838043],[-70.1413428883983,41.7690757559446],[-70.139257526999,41.768914176932],[-70.1386234658403,41.7688098019892],[-70.1378766377577,41.7690355362144],[-70.1375402395941,41.7691018399544],[-70.1363755907175,41.7692860080461],[-70.1342845073767,41.7693977406659],[-70.1321991552604,41.7692359424436],[-70.1314842593534,41.7691153392757],[-70.128856736173,41.7686099212763],[-70.1269015444697,41.7680966993569],[-70.1260225690088,41.7679667901372],[-70.1251442880025,41.7678718205761],[-70.1237981576083,41.7684560885849],[-70.122454076544,41.7689553616688],[-70.1195814591445,41.7696088182218],[-70.117168173961,41.7704609295724],[-70.1153030265376,41.770983058914],[-70.1134707362126,41.7713699474131],[-70.1103231165797,41.7716945764549],[-70.1012917208831,41.7746653771767],[-70.0970883200854,41.7763245925686],[-70.0955588341802,41.7768296441708],[-70.0943672085978,41.7771503753777],[-70.0923333514527,41.7775316493203],[-70.0902418010056,41.7776425720817],[-70.0899873684669,41.777637172601],[-70.0873590433287,41.7775629250523],[-70.0869626892515,41.7775344179728],[-70.0853912978208,41.7782262932076],[-70.0844346552987,41.7787642412335],[-70.0825859929113,41.7796203016512],[-70.0815476934707,41.7800087220698],[-70.0797747792669,41.7805443015497],[-70.0793511282818,41.7806442857797],[-70.0789865576965,41.7808085787167],[-70.0770718443518,41.7814482440174],[-70.0750377490543,41.7818291191527],[-70.0734961311255,41.7819370673813],[-70.0713253388749,41.7819841600974],[-70.0707757161625,41.7819868127019],[-70.0686901143863,41.781823852229],[-70.0676422052343,41.7816109589941],[-70.0551738483114,41.7858849785393],[-70.05425417336,41.7861659697832],[-70.0531596863891,41.7864622036267],[-70.0522391446922,41.7867859405445],[-70.0420953686293,41.7907993670469],[-70.041211696006,41.7911156538063],[-70.0407484243901,41.7912638850525],[-70.0394339432353,41.7919021459392],[-70.0383114433236,41.7923160233051],[-70.0377450288762,41.7925958305954],[-70.0372872041981,41.7929203420063],[-70.0365878068429,41.7933789832763],[-70.0348495956047,41.7942565915412],[-70.0331469962384,41.7948391842108],[-70.0324929489145,41.7949613343261],[-70.031942655623,41.7951449693983],[-70.0315121681012,41.7952886333579],[-70.0298217083485,41.7971386720035],[-70.0290687872837,41.7978110727623],[-70.028809675147,41.7981566653335],[-70.0275769857145,41.7994267262898],[-70.0260147885164,41.8005490669308],[-70.0256901048549,41.8010125784046],[-70.0244572981835,41.8022826054299],[-70.0242942737604,41.8024003492032],[-70.0241908479542,41.802548130108],[-70.0229579797024,41.8038182308344],[-70.02207258456,41.8045034582657],[-70.0216138693601,41.8048228543987],[-70.0204201904965,41.8055198291001],[-70.0200317088446,41.8061158586785],[-70.0187986909836,41.8073858241515],[-70.0185573047126,41.8075599926076],[-70.0178378040468,41.8083065058703],[-70.0175901512926,41.8085221932218],[-70.0171741620758,41.8091398276368],[-70.0175585209812,41.8102929433161],[-70.0177048667904,41.8118582659456],[-70.0176992054845,41.8120242415035],[-70.017668446238,41.8126643555005],[-70.0174551440976,41.8140584118762],[-70.0168769691698,41.8155671259419],[-70.0160622530505,41.8169713643215],[-70.0161890970759,41.8181476059659],[-70.0160471983166,41.8202528904975],[-70.0159847116885,41.825283527661],[-70.0158250829608,41.8266647722425],[-70.0158163944237,41.827524620511],[-70.0161708905493,41.8285884721393],[-70.016316204203,41.8297947588005],[-70.0163465554815,41.8308036944546],[-70.0162346869672,41.8318603062062],[-70.0163039717674,41.8352588187267],[-70.0163991954714,41.8359326279274],[-70.0165023215814,41.8381356489274],[-70.0172012021722,41.8430821707761],[-70.0173154923621,41.8433926118818],[-70.0173304341454,41.8436253105343],[-70.0173440274465,41.8438331383517],[-70.0174601221245,41.8444908285084],[-70.01754055468,41.8449472475613],[-70.0184657278934,41.8501910654179],[-70.0185467388178,41.8508202032052],[-70.0187198894126,41.8529424544594],[-70.0195556232159,41.8565952079395],[-70.0197265683631,41.8579740808867],[-70.0197495565749,41.8590903446405],[-70.0199581835398,41.8609531736356],[-70.0199995472352,41.86159980482],[-70.0200198709778,41.8629141392238],[-70.020297491584,41.8643692239121],[-70.0205236808978,41.8651133421772],[-70.0207949177109,41.8664862186162],[-70.0211232874424,41.8700186443363],[-70.0211905568988,41.8703335133574],[-70.0212832819724,41.8726360701324],[-70.0210639266055,41.8743013652154],[-70.021058968106,41.8767843721402],[-70.0208397335521,41.8783449423875],[-70.0203347863839,41.8796621006241],[-70.02021231219,41.8802508666325],[-70.0189625891758,41.8830700838291],[-70.0186872250625,41.8834599294229],[-70.018359736402,41.8838940316207],[-70.0171251785301,41.885164062376],[-70.01607886149,41.8859501789802],[-70.0160018914444,41.8861506154488],[-70.0158800294261,41.8864676204971],[-70.014959510365,41.8878784046154],[-70.0140465718867,41.8888176092302],[-70.0146996103027,41.8899140682145],[-70.0152080036873,41.8914368194109],[-70.0153545964799,41.8930022278669],[-70.0151351664502,41.8945627851433],[-70.0149606092144,41.8951334890663],[-70.0148436737547,41.8954656852044],[-70.0162271161156,41.8968079196945],[-70.0165927775924,41.8973417030385],[-70.0168070906485,41.8976827074296],[-70.0174066484989,41.8975093195393],[-70.0193918738055,41.8976583608507],[-70.0198809667485,41.8977260259223],[-70.0235497201843,41.8987128228694],[-70.0257544237706,41.8996299963289],[-70.0279474507429,41.9007996493408],[-70.0303962405807,41.9024435904785],[-70.0311400415941,41.9029884053191],[-70.0343536092386,41.9055532862073],[-70.0355348231002,41.9066585579606],[-70.0363610599955,41.9075701672941],[-70.0369286279253,41.9082612616275],[-70.0373053404414,41.9087703536163],[-70.0392215076325,41.9106864195959],[-70.0404578081378,41.9122206973333],[-70.0432121151563,41.9165640905756],[-70.0434029686344,41.917001543269],[-70.0437947540612,41.9163283947278],[-70.0443461644044,41.9155756070886],[-70.0461099711811,41.9137526515506],[-70.0469982876442,41.913041960678],[-70.0483115207718,41.9121362212365],[-70.0507311469066,41.9107002709196],[-70.0515233369259,41.9102685522707],[-70.0530376497357,41.9095110967971],[-70.0531111513712,41.9091940720009],[-70.0532190848858,41.908305684456],[-70.0540333390974,41.9036864082224],[-70.0535239202289,41.9021638316366],[-70.0533763687183,41.9005984735383],[-70.0535948830208,41.8990378436946],[-70.0541730664064,41.8975289539922],[-70.0546646100746,41.8966982803138],[-70.0547865833192,41.8965174791003],[-70.0552147071002,41.8959370516997],[-70.0564487124308,41.8946667002279],[-70.0574333178751,41.8939340073901],[-70.0572037509996,41.8921605091947],[-70.057234347008,41.8908091081753],[-70.0573303192315,41.8898170110788],[-70.0575275857402,41.8886674408916],[-70.0575215150323,41.8883712891033],[-70.0572775776148,41.8871694980451],[-70.0571643267399,41.8863699783064],[-70.0570609770663,41.8851119731917],[-70.0558346123245,41.8832459917789],[-70.055489187283,41.8826698203986],[-70.0549378568206,41.8816571032036],[-70.054708313171,41.8812000881793],[-70.0541991803816,41.8796774233293],[-70.0540564200714,41.8779714696386],[-70.0540870560656,41.8772689485758],[-70.0543007179861,41.8758489081114],[-70.0548785539037,41.8743400105207],[-70.0557979939845,41.8729289031568],[-70.0570315423407,41.8716585430784],[-70.0585410828035,41.8705677894351],[-70.0602810484061,41.869689824124],[-70.0621985782488,41.8690505344009],[-70.0642355350205,41.8686698004242],[-70.0663301168387,41.8685593555878],[-70.0684185499188,41.8687223583615],[-70.0704372382701,41.8691540499214],[-70.0723249417812,41.8698411508967],[-70.0730645532186,41.8702005051667],[-70.0735847747644,41.870474359035],[-70.0745446790416,41.8710361812939],[-70.0760043366742,41.8721642348486],[-70.0771800790937,41.8734648611039],[-70.0777837586266,41.8744010402381],[-70.0781876930843,41.8751320318279],[-70.079940238787,41.8775547731673],[-70.080284909867,41.8780706176414],[-70.0811733507781,41.8795122404601],[-70.0816188071512,41.8803406252837],[-70.0821287226733,41.881863079137],[-70.0822751737984,41.8834914132034],[-70.0821505756166,41.8874294106011],[-70.0822470830143,41.888475691725],[-70.082187103702,41.8908358815654],[-70.0820863561244,41.8917891252004],[-70.0823048540128,41.8927693860881],[-70.082773564858,41.8939604908798],[-70.0830651132304,41.8948758327248],[-70.0835858623116,41.8969966807714],[-70.0837812374691,41.8984280547417],[-70.084014657608,41.9065491905768],[-70.0841239147263,41.9078055243378],[-70.0840707058416,41.9143489954767],[-70.084246373701,41.9152758610492],[-70.0846916767135,41.916753641055],[-70.0849749707538,41.9183504338889],[-70.0850990611198,41.9205473936721],[-70.085109295524,41.9210039658115],[-70.0850562210297,41.925645740766],[-70.0853473896183,41.9276393726433],[-70.0854180810811,41.9285283754919],[-70.0854678303653,41.9320706043256],[-70.0854828825022,41.9331248729858],[-70.085486899059,41.9334001042708],[-70.0854997344027,41.933636634798],[-70.085602676908,41.9355390571795],[-70.0856362941125,41.9357195660301],[-70.0871842966183,41.9375942164815],[-70.0876443412044,41.9383467490417],[-70.0879253218272,41.9390874312478],[-70.0884003540771,41.9398992159955],[-70.0892483352626,41.9420437861273],[-70.0893095787664,41.9423226050139],[-70.0894594126936,41.94342076724],[-70.0895523961438,41.9451580951263],[-70.0894605678405,41.9466844140058],[-70.0892615995201,41.9478198701876],[-70.0891696999972,41.9493815758114],[-70.0893142549796,41.9510779383799],[-70.0892530019303,41.9525466442019],[-70.0891928043293,41.9532054884509],[-70.0889471350195,41.9549555617586],[-70.0889420704548,41.9553527824513],[-70.0890805694685,41.9556843314711],[-70.0895363472489,41.9572516271082],[-70.0896902208494,41.9581692044681],[-70.089605221983,41.9608295553269],[-70.0891934931624,41.9625972984388],[-70.0889444337258,41.9645149942801],[-70.0888099804677,41.968947017021],[-70.0888534274485,41.9704541119805],[-70.0889300437721,41.9709115007341],[-70.0890194158374,41.9717950540852],[-70.0891748761436,41.9762513630735],[-70.0891781497755,41.9765772794562],[-70.0891543891654,41.9783458468967],[-70.0895056552907,41.9814179532179],[-70.0895482837774,41.982304259785],[-70.0895054294687,41.9846786886512],[-70.0904051754808,41.9865909228457],[-70.09059003164,41.9870180378607],[-70.0910812300478,41.9882566385306],[-70.091426705023,41.9893943009992],[-70.0914313741097,41.990600970768],[-70.0914328266854,41.9909606311178],[-70.0914394058944,41.9914104002921],[-70.0914443825875,41.9917526351671],[-70.0914501034009,41.9921539491542],[-70.0913269846849,41.9928627124384],[-70.0915001187659,41.993067988547],[-70.0913766019894,41.9937238000792],[-70.0914228840017,41.9939995498049],[-70.0916162828624,41.9949581270232],[-70.0918978360711,41.9971479926549],[-70.0921502821645,41.9981010824444],[-70.0923283673512,41.9990217400702],[-70.0923664140099,41.999331785174],[-70.0933582153171,42.0022315714533],[-70.0935818573534,42.0030368981613],[-70.0938992195389,42.0045180877165],[-70.0947755526677,42.0068092617591],[-70.0950764766,42.0078068809027],[-70.0955881402638,42.01010932412],[-70.0960681733867,42.0114067393385],[-70.0970677779632,42.0136240370765],[-70.0976335435391,42.0148308299799],[-70.098094555918,42.015674443591],[-70.098324894564,42.0161314552706],[-70.098644210484,42.0170825546056],[-70.0989394502373,42.0175757478336],[-70.099148157551,42.0180724727088],[-70.0995524442514,42.0191415784648],[-70.10061415039,42.0212093150875],[-70.1030632535531,42.0247172461651],[-70.1047230723509,42.026813584021],[-70.1053983422539,42.0275658609542],[-70.1077608458945,42.0298282952103],[-70.1097061597095,42.0315302115446],[-70.110228425889,42.0320210892079],[-70.1112096202459,42.0330117029205],[-70.1124314770545,42.0340451167856],[-70.1149587802442,42.0359064428009],[-70.1153763091072,42.036229534948],[-70.1164125532692,42.0370727344041],[-70.1183326901837,42.0382585965727],[-70.123506134746,42.0410217537679],[-70.1245867037337,42.0415164869931],[-70.1251757650686,42.0418044155795],[-70.1294804097209,42.0440446793393],[-70.1319002721631,42.0450568332363],[-70.1413689617374,42.0483470436687],[-70.1426449525235,42.0488619316679],[-70.1438423052655,42.0494169333613],[-70.145883191602,42.0506071734084],[-70.1470960761735,42.0514854021358],[-70.1490051340917,42.052187788351],[-70.1510050718866,42.0531129918312],[-70.1515993784464,42.0532724403936],[-70.1608519520417,42.0418296264554]]]},"properties":{"BAS_ID":22,"NAME":"CAPE COD"}}]}