{
"type": "FeatureCollection",
"name": "buzzards_bay_proper",
"crs": { "type": "name", "properties": { "name": "urn:ogc:def:crs:OGC:1.3:CRS84" } },
"features": [
{ "type": "Feature", "properties": { "NAME": "Buzzards Bay Proper", "SOURCE": "derived: closure polygon minus BBNEP sub-basins minus Natural Earth 10m land" }, "geometry": { "type": "Polygon", "coordinates": [ [ [ -71.0606, 41.4653 ], [ -71.1, 41.5 ], [ -71.1, 41.504833244418485 ], [ -71.099145892818811, 41.504808087996821 ], [ -71.098575491839185, 41.504806071431453 ], [ -71.097576617647462, 41.504909732709038 ], [ -71.097008773852636, 41.504978806509186 ], [ -71.096720340932734, 41.505013892064426 ], [ -71.096480649274682, 41.505334638048609 ], [ -71.096409492473086, 41.505595660064984 ], [ -71.096334673417033, 41.505870115863608 ], [ -71.096284741362638, 41.506053277617987 ], [ -71.0962373550297, 41.506227100785338 ], [ -71.096237355068311, 41.506227100964693 ], [ -71.096237355048103, 41.506227101038803 ], [ -71.096246839978733, 41.506271165530443 ], [ -71.096355064784873, 41.506773951415802 ], [ -71.096044290930521, 41.506690944210533 ], [ -71.09537925483346, 41.506617108533746 ], [ -71.095379254443259, 41.506617108532353 ], [ -71.095379254428337, 41.506617108530698 ], [ -71.095046511225718, 41.506615921503865 ], [ -71.09442855959999, 41.506613714436739 ], [ -71.093715764718198, 41.506575431031401 ], [ -71.093097814002959, 41.506573216718742 ], [ -71.092152360137888, 41.506603658672446 ], [ -71.092099357685825, 41.50660536524294 ], [ -71.091857832815066, 41.506625844197963 ], [ -71.091290812075073, 41.506673921946728 ], [ -71.091209579880498, 41.506698008070686 ], [ -71.090576421202755, 41.506885745445807 ], [ -71.089741193230253, 41.507061870597362 ], [ -71.089576815472626, 41.507096533011364 ], [ -71.089517043524339, 41.50711553349138 ], [ -71.088909949596655, 41.507308517916528 ], [ -71.088334938309757, 41.508021096190141 ], [ -71.088219434401353, 41.508327909399142 ], [ -71.088219434478333, 41.508327909421723 ], [ -71.088219434369549, 41.508327909710694 ], [ -71.088588118028611, 41.508436037607368 ], [ -71.088757691415879, 41.508485770400398 ], [ -71.089469799933923, 41.508698204214092 ], [ -71.090328035794002, 41.508954230420997 ], [ -71.090473164842464, 41.509119581098517 ], [ -71.090599685164918, 41.509263730352195 ], [ -71.090528652858012, 41.509674833423759 ], [ -71.089921139176326, 41.509628289495069 ], [ -71.089898179937421, 41.509626530492191 ], [ -71.089892471986772, 41.509625650913122 ], [ -71.089396067604028, 41.509593423563324 ], [ -71.089193453649401, 41.509584857084725 ], [ -71.089021162898007, 41.509592066353903 ], [ -71.088981632960255, 41.509596310442653 ], [ -71.088818354410634, 41.50961384066639 ], [ -71.088623236216975, 41.509613133471625 ], [ -71.08855580442065, 41.509609018253144 ], [ -71.088544810585418, 41.509608347322853 ], [ -71.088111573982232, 41.509606775582391 ], [ -71.087844968822793, 41.509627869546982 ], [ -71.087844968646593, 41.509627869860587 ], [ -71.087844968432094, 41.509627869877555 ], [ -71.087705024819925, 41.509876932753471 ], [ -71.087369735234191, 41.510268779119265 ], [ -71.0872259726425, 41.510446921866496 ], [ -71.086935310553258, 41.510518574694323 ], [ -71.086511757440178, 41.510622987006499 ], [ -71.085845999077435, 41.510656292567411 ], [ -71.085845999004462, 41.510656292586702 ], [ -71.085845998784251, 41.510656292597716 ], [ -71.085179314862003, 41.510832523217054 ], [ -71.084798317917148, 41.510938329285743 ], [ -71.0844727712945, 41.510955953720156 ], [ -71.084180092879819, 41.510971798539671 ], [ -71.083561635935112, 41.511040996806777 ], [ -71.082372487469257, 41.511143826272907 ], [ -71.08161187869969, 41.51114102445424 ], [ -71.080850802784497, 41.511209682037688 ], [ -71.079377121464063, 41.511204229120501 ], [ -71.07847319278541, 41.51130807462448 ], [ -71.077807187835049, 41.511377064930791 ], [ -71.0774104075183, 41.511362027200555 ], [ -71.076761582601435, 41.511337436887104 ], [ -71.076123969515294, 41.511305092527294 ], [ -71.076001208080214, 41.511298865129291 ], [ -71.075534309915639, 41.511260156775826 ], [ -71.075098456430126, 41.511224022140709 ], [ -71.074830003571265, 41.511229740444513 ], [ -71.073672075482321, 41.511254405096494 ], [ -71.072771513274049, 41.511222806211769 ], [ -71.072531399157612, 41.511214381015947 ], [ -71.071865865916919, 41.511211871985672 ], [ -71.071734362075247, 41.511216865370052 ], [ -71.071009941390855, 41.511244372317009 ], [ -71.070391227273106, 41.511349231368449 ], [ -71.069803266231773, 41.511542988180658 ], [ -71.069533621016433, 41.511631847007152 ], [ -71.068865680680446, 41.511986643190639 ], [ -71.067990535051081, 41.512338656122353 ], [ -71.067721621102208, 41.512446822241841 ], [ -71.067669357812861, 41.512499824424573 ], [ -71.067195073826198, 41.512980813298725 ], [ -71.067072199988459, 41.513342426909851 ], [ -71.067001054754826, 41.513551804234368 ], [ -71.066760458002719, 41.513979684376629 ], [ -71.066737559382148, 41.514143394681916 ], [ -71.066720890019212, 41.514262568178346 ], [ -71.066382796001562, 41.513585176943444 ], [ -71.065721595325556, 41.51293945062433 ], [ -71.06553337467065, 41.512652864872607 ], [ -71.065205932046737, 41.511865480207 ], [ -71.064830717347419, 41.511113644806294 ], [ -71.064500135903188, 41.510790777881702 ], [ -71.064075211063894, 41.510360347861727 ], [ -71.063554488752942, 41.510036747053768 ], [ -71.062368253822385, 41.509710579625043 ], [ -71.061323419491586, 41.509563612562445 ], [ -71.060754446268163, 41.509347012042959 ], [ -71.05956799288289, 41.509056547818233 ], [ -71.058713566725316, 41.508874562131915 ], [ -71.057810623208226, 41.508835313628254 ], [ -71.056717288949102, 41.508831047752892 ], [ -71.055956955514048, 41.508792342013479 ], [ -71.055197367350971, 41.508646433811762 ], [ -71.054485566574584, 41.508464975216704 ], [ -71.054060227993702, 41.508105972642923 ], [ -71.05368317546457, 41.507639958104377 ], [ -71.052877067968083, 41.507350918588344 ], [ -71.052401716146321, 41.507349044485878 ], [ -71.051926364352184, 41.507347168392045 ], [ -71.051642153169368, 41.507203112993047 ], [ -71.051120768107253, 41.506986652504807 ], [ -71.050456281805552, 41.506841088627922 ], [ -71.049838831727428, 41.506767174340084 ], [ -71.049173093723297, 41.506800264659752 ], [ -71.048032007844583, 41.506831458167895 ], [ -71.047175625232356, 41.506935243627616 ], [ -71.046461844115882, 41.507039592706398 ], [ -71.045797874094518, 41.506822537179403 ], [ -71.04548127543913, 41.506647508096663 ], [ -71.044756169293933, 41.506246630890566 ], [ -71.043572135038929, 41.505634409082987 ], [ -71.042484465600609, 41.504843897686293 ], [ -71.041586187159538, 41.504161339967297 ], [ -71.040640651280043, 41.503442851308051 ], [ -71.03997878903948, 41.502939904420465 ], [ -71.039649144490426, 41.502509768460243 ], [ -71.039034059815577, 41.502114205160581 ], [ -71.038422327188599, 41.501254120702633 ], [ -71.037809065000801, 41.500608425415898 ], [ -71.037336600247684, 41.5002134342243 ], [ -71.036958683575406, 41.499890293374989 ], [ -71.036722326327052, 41.499710662209644 ], [ -71.036533500007209, 41.499531224721544 ], [ -71.035817197410694, 41.499992828348383 ], [ -71.035054650313498, 41.50027557218985 ], [ -71.033863026516187, 41.500735214728287 ], [ -71.033052931278561, 41.501017749837011 ], [ -71.031717904722797, 41.501583979617941 ], [ -71.030716880840529, 41.501972909884365 ], [ -71.029715582747357, 41.50239756321573 ], [ -71.028857653772633, 41.502715603254387 ], [ -71.028095043610335, 41.502998300348011 ], [ -71.027476339737646, 41.50310292482849 ], [ -71.027143089159352, 41.50317300295346 ], [ -71.026960199212709, 41.503172240606474 ], [ -71.026886981090939, 41.503198818226366 ], [ -71.026191680853131, 41.503350149234016 ], [ -71.026097713977975, 41.503359300659177 ], [ -71.025904797795263, 41.503403512948161 ], [ -71.025864420063982, 41.503405595136087 ], [ -71.025225221252384, 41.503591545765623 ], [ -71.02495333252817, 41.5037936730225 ], [ -71.024570688888389, 41.50411366975338 ], [ -71.024281250754015, 41.504684188983767 ], [ -71.024182472369887, 41.505184040710489 ], [ -71.024170786420868, 41.505609279770653 ], [ -71.024319241027584, 41.505970746541671 ], [ -71.024472215959193, 41.506189284822611 ], [ -71.024319240770126, 41.505970746482021 ], [ -71.024188114678125, 41.505651472265505 ], [ -71.022644705553589, 41.505361978956508 ], [ -71.022375317556651, 41.505311448118107 ], [ -71.022165659923701, 41.505422255441879 ], [ -71.022001413174394, 41.505683091402638 ], [ -71.021852143948422, 41.505965983530032 ], [ -71.021493131315395, 41.506446821664952 ], [ -71.021164694810949, 41.506650175300393 ], [ -71.020944728166015, 41.506861489037099 ], [ -71.021264053310077, 41.507099557621437 ], [ -71.021532647967874, 41.507295722636769 ], [ -71.021562373737112, 41.507667764223001 ], [ -71.021521497594179, 41.508012450281846 ], [ -71.021403344542165, 41.508329611905317 ], [ -71.021246253951688, 41.508618613423074 ], [ -71.021101229144264, 41.508878966530588 ], [ -71.020701032178991, 41.509124501979734 ], [ -71.020351453684441, 41.509364388257353 ], [ -71.019938674053932, 41.509614885517664 ], [ -71.019409759401228, 41.509805005850438 ], [ -71.018877649320572, 41.509890536556199 ], [ -71.018357789052658, 41.509956327497946 ], [ -71.017719941587558, 41.510124453221259 ], [ -71.017283194413892, 41.510203488316314 ], [ -71.016901402857485, 41.510209835526567 ], [ -71.016521675200323, 41.5102734009402 ], [ -71.016166363084452, 41.510317373706833 ], [ -71.01576098895535, 41.510381483743018 ], [ -71.015419016863717, 41.510434983691567 ], [ -71.01507778484897, 41.510526657504023 ], [ -71.014736749032437, 41.510608764754366 ], [ -71.014268334010467, 41.510692858084852 ], [ -71.013862966131242, 41.510761744576499 ], [ -71.013229783574999, 41.510872607532782 ], [ -71.012799789409172, 41.51096567570039 ], [ -71.012420407505289, 41.51104826788692 ], [ -71.012015316086362, 41.511131498557326 ], [ -71.011585204139493, 41.51121499525032 ], [ -71.011040345960467, 41.51130034064623 ], [ -71.01040665877882, 41.511392193638258 ], [ -71.009791622967867, 41.511473947667888 ], [ -71.009227266742613, 41.511540583215208 ], [ -71.00869465286867, 41.511606743773555 ], [ -71.008352939549766, 41.511669602411892 ], [ -71.007853045073034, 41.511739980564705 ], [ -71.00620270264119, 41.51193694086183 ], [ -71.005653497980958, 41.512072465065081 ], [ -71.005101689632539, 41.51213885343536 ], [ -71.004493394549627, 41.512227501635024 ], [ -71.003904141300382, 41.512316229829068 ], [ -71.003304313568947, 41.512341273451625 ], [ -71.003075433875011, 41.51261018887552 ], [ -71.002532685288358, 41.512606607486354 ], [ -71.002270746861782, 41.512408398931079 ], [ -71.001768465053516, 41.51240863324324 ], [ -71.001310657966854, 41.512416376262138 ], [ -71.000902318142963, 41.512384943997333 ], [ -71.000377613075884, 41.512278811575605 ], [ -70.999734003286079, 41.512283814066819 ], [ -70.999289562035543, 41.512297744275529 ], [ -70.998833099846351, 41.512306683719771 ], [ -70.998178350918138, 41.512307991893671 ], [ -70.99772552912313, 41.512199435810849 ], [ -70.99725876553137, 41.512131388903157 ], [ -70.996847081125196, 41.512116396411969 ], [ -70.996497782651019, 41.512146247382532 ], [ -70.996051693344796, 41.512239495010107 ], [ -70.995526737741685, 41.512103912969977 ], [ -70.995126248027532, 41.511892233945481 ], [ -70.994608010285219, 41.51176870585639 ], [ -70.993987511435819, 41.511618646327385 ], [ -70.993629859090802, 41.511549148294151 ], [ -70.9932466799428, 41.511484974852294 ], [ -70.992741360872074, 41.51139448120194 ], [ -70.992300905816137, 41.51128848158946 ], [ -70.991777388068357, 41.511188926681641 ], [ -70.991208082964775, 41.511092071497764 ], [ -70.990694534989458, 41.511062006436397 ], [ -70.990499359991247, 41.511294991136225 ], [ -70.990416394851266, 41.511542866567858 ], [ -70.990303308205327, 41.511797387539644 ], [ -70.989942797703449, 41.512089080901056 ], [ -70.989620953511604, 41.512331389360682 ], [ -70.989323755973089, 41.512550079422468 ], [ -70.989088517869149, 41.512795158327904 ], [ -70.988869230066484, 41.513063042861468 ], [ -70.98858018123444, 41.513409676073906 ], [ -70.988360426205332, 41.513771927244449 ], [ -70.98825851034384, 41.514060522980593 ], [ -70.988222755108694, 41.514319123426979 ], [ -70.988148997346372, 41.514578490347077 ], [ -70.988108296673403, 41.514865636350699 ], [ -70.98811703662264, 41.515123630893839 ], [ -70.988095342128176, 41.515381600703527 ], [ -70.988060420571657, 41.51569735941942 ], [ -70.988039400596548, 41.515978629262563 ], [ -70.988128411331857, 41.516355046524922 ], [ -70.988281678152703, 41.516609978842382 ], [ -70.988480551399732, 41.516863878517363 ], [ -70.988730263086808, 41.517161867615144 ], [ -70.989015928138812, 41.517486671316782 ], [ -70.989380994178788, 41.517809042039083 ], [ -70.989701486249388, 41.518053019918632 ], [ -70.9899925011607, 41.518324213064268 ], [ -70.99028249345163, 41.518662333492784 ], [ -70.990630084471803, 41.518966642462502 ], [ -70.990879859447745, 41.519338408901042 ], [ -70.991010315840526, 41.51959346023807 ], [ -70.991129683550952, 41.519906471054369 ], [ -70.991188211794963, 41.520340774606488 ], [ -70.991225038180431, 41.520678052064419 ], [ -70.99155599810409, 41.521082355617615 ], [ -70.991888245956957, 41.521338478580105 ], [ -70.99220807742357, 41.521661791156298 ], [ -70.992594978740527, 41.521955015309914 ], [ -70.992891508503007, 41.522278643806061 ], [ -70.993111438150166, 41.522589549394013 ], [ -70.993349384317611, 41.522871273055188 ], [ -70.993520145243139, 41.523297768018153 ], [ -70.993643192751634, 41.523667791005558 ], [ -70.993721702661304, 41.523924159602664 ], [ -70.993908049538049, 41.524178453311968 ], [ -70.994146000203187, 41.524426867753938 ], [ -70.990588912842227, 41.526455773157188 ], [ -70.990575001752703, 41.525622444240284 ], [ -70.989858058102868, 41.524094599513738 ], [ -70.988071994593554, 41.521489931174678 ], [ -70.985600013866559, 41.521431109590267 ], [ -70.982426243261301, 41.525847622933888 ], [ -70.97955209002366, 41.52909013160825 ], [ -70.972749674838269, 41.53048455291021 ], [ -70.972928783105232, 41.53084741681571 ], [ -70.959706183999913, 41.531195380000042 ], [ -70.947621222999942, 41.536444403000075 ], [ -70.925160285999937, 41.550726630000042 ], [ -70.931630011999914, 41.580267645000049 ], [ -70.924001945193041, 41.593194598799748 ], [ -70.911071581393173, 41.595282276552162 ], [ -70.910563115736252, 41.595335483405414 ], [ -70.910158070988061, 41.59563668339063 ], [ -70.909964712298134, 41.5959289689374 ], [ -70.90976199513004, 41.596298241679165 ], [ -70.909612478745444, 41.596657867638719 ], [ -70.909450967763377, 41.596984051591662 ], [ -70.909265730780348, 41.597262579746847 ], [ -70.909003514861823, 41.59750037801458 ], [ -70.908933649253328, 41.597839061623908 ], [ -70.909015502427067, 41.598149139277865 ], [ -70.909073004576982, 41.598514785408589 ], [ -70.90910661453448, 41.598953189000802 ], [ -70.909191290257709, 41.599424496651537 ], [ -70.909197482640309, 41.599753728017895 ], [ -70.909204467351117, 41.600158045966452 ], [ -70.911009560856613, 41.606234852480682 ], [ -70.911730925943914, 41.607475991841483 ], [ -70.912448827758666, 41.60871110806923 ], [ -70.907338019999941, 41.614935614000046 ], [ -70.906631288049425, 41.624020064182616 ], [ -70.905484981050236, 41.62440268491914 ], [ -70.904025986037354, 41.624463135956255 ], [ -70.903285939856247, 41.624543663773977 ], [ -70.903072841309779, 41.624313512251376 ], [ -70.902554551005878, 41.623997909369542 ], [ -70.902443700279974, 41.62400730936362 ], [ -70.900498764881917, 41.624172219261467 ], [ -70.900492444995308, 41.624172755065203 ], [ -70.900442818338476, 41.624779359005338 ], [ -70.900442791811074, 41.624779683256193 ], [ -70.900544845590431, 41.625472257417414 ], [ -70.900544864312138, 41.625472384467976 ], [ -70.900539145504396, 41.626082920774849 ], [ -70.900535338892226, 41.626489305829175 ], [ -70.900535334662251, 41.626489757410454 ], [ -70.900585653303409, 41.62689642889778 ], [ -70.900585709091175, 41.626896879766775 ], [ -70.900473525969105, 41.627303144925435 ], [ -70.900416100609931, 41.627628665092125 ], [ -70.900032228297491, 41.628074013415116 ], [ -70.899539205209408, 41.628600943182711 ], [ -70.89915627902657, 41.628924180301659 ], [ -70.898773532089805, 41.629247979832897 ], [ -70.89828164303006, 41.629652234196556 ], [ -70.897841832986998, 41.630260472098641 ], [ -70.897621128436754, 41.630666035709254 ], [ -70.897621061147646, 41.630666159357922 ], [ -70.897723880417772, 41.631277270706597 ], [ -70.898233422419906, 41.634780175438458 ], [ -70.899321447059108, 41.634460668652331 ], [ -70.899628076298129, 41.636456617892982 ], [ -70.900768600500669, 41.636340521345808 ], [ -70.902910657741018, 41.636140484090554 ], [ -70.90318203310018, 41.637482032443167 ], [ -70.90318215259073, 41.637482623133266 ], [ -70.90072781189788, 41.637724528564029 ], [ -70.881011522999927, 41.627915757000039 ], [ -70.874256964999915, 41.622992255000042 ], [ -70.869984503999945, 41.61587148600006 ], [ -70.862904425999943, 41.597235419000071 ], [ -70.856922980999911, 41.591620184000078 ], [ -70.845204230999911, 41.592474677000041 ], [ -70.844833647572472, 41.595958161460878 ], [ -70.844419406707644, 41.596012539225228 ], [ -70.843055964494141, 41.596191501154493 ], [ -70.842428883287099, 41.596271280460272 ], [ -70.840516782416941, 41.596563495925217 ], [ -70.840203356407642, 41.5965920056492 ], [ -70.839586836981056, 41.59662633628426 ], [ -70.838677717471157, 41.596628631705308 ], [ -70.83711285179055, 41.596551270725811 ], [ -70.835395068590444, 41.596609478782327 ], [ -70.834616544989515, 41.596680746164438 ], [ -70.834303431100054, 41.596678912173864 ], [ -70.834014072214003, 41.596596154477197 ], [ -70.83387037309349, 41.596555055263721 ], [ -70.833569253863743, 41.59637131202971 ], [ -70.833392103341112, 41.595922909335293 ], [ -70.832969478630304, 41.594798229175467 ], [ -70.832821451759017, 41.594463733381573 ], [ -70.831635841955517, 41.592894783848728 ], [ -70.830123770863935, 41.591642360777229 ], [ -70.829893938889185, 41.591405949595625 ], [ -70.829544341805345, 41.591032348070037 ], [ -70.82923466973071, 41.5907044755619 ], [ -70.828705675427571, 41.590102339232061 ], [ -70.827649148440642, 41.588761583551829 ], [ -70.826921947723989, 41.58780189062621 ], [ -70.826227139542823, 41.586645242295319 ], [ -70.825261129735622, 41.585350495026248 ], [ -70.823755286224952, 41.583536921654719 ], [ -70.823114518983218, 41.583009917005256 ], [ -70.822492675629732, 41.58260434150796 ], [ -70.822324035181026, 41.582478431247608 ], [ -70.822190456217783, 41.582554985104522 ], [ -70.822099424476107, 41.582781412536761 ], [ -70.822252191952074, 41.584751435473784 ], [ -70.822100634036985, 41.585645464421795 ], [ -70.821460596797877, 41.586952654325799 ], [ -70.820668942440875, 41.587775919705869 ], [ -70.819937611644932, 41.588273770447337 ], [ -70.81746997589552, 41.589240654458116 ], [ -70.81710341277082, 41.589507661152361 ], [ -70.816951834713322, 41.589924457414206 ], [ -70.816920571344696, 41.590285158366967 ], [ -70.816555445290319, 41.591272879287217 ], [ -70.816571318398317, 41.591323371796456 ], [ -70.802091161920885, 41.628924030504216 ], [ -70.802097391728267, 41.629715745287307 ], [ -70.802331816480788, 41.630417732078726 ], [ -70.803097450768703, 41.631564063297908 ], [ -70.804013227320354, 41.633217259315309 ], [ -70.804505505821496, 41.634063523887392 ], [ -70.805207688879946, 41.634690526881485 ], [ -70.805960635864508, 41.635421620587543 ], [ -70.807071532836261, 41.636634895736812 ], [ -70.808185697843584, 41.637549798507962 ], [ -70.808682548695231, 41.637980933217484 ], [ -70.80704417928321, 41.638703218289479 ], [ -70.804573697446727, 41.641305345120138 ], [ -70.796239811126526, 41.65098571914789 ], [ -70.795832204553165, 41.652103536509259 ], [ -70.79591898034991, 41.653985078847008 ], [ -70.796440427477975, 41.655439366357079 ], [ -70.797250888846207, 41.656680465708561 ], [ -70.798135693533297, 41.657680174211393 ], [ -70.79859382686378, 41.658131930839552 ], [ -70.797840949999909, 41.658880927000041 ], [ -70.786040818999936, 41.66046784100007 ], [ -70.774322068999936, 41.646226304000038 ], [ -70.75609290299991, 41.663031317000048 ], [ -70.753580505526557, 41.669034778400253 ], [ -70.744797566057201, 41.672141004951754 ], [ -70.745108922820293, 41.672366641455589 ], [ -70.744763041800454, 41.672478489902247 ], [ -70.715920226808464, 41.676319673962055 ], [ -70.716162730794565, 41.67668770498161 ], [ -70.7165068245409, 41.676753890330687 ], [ -70.71694784714019, 41.676898738093826 ], [ -70.717465332248878, 41.677068308067071 ], [ -70.717887605942622, 41.677245685769911 ], [ -70.718295760071442, 41.677520610259421 ], [ -70.718633276899894, 41.677856298090077 ], [ -70.718869524633035, 41.678215600159824 ], [ -70.719067700101618, 41.678483644771603 ], [ -70.719157553798226, 41.678904671079145 ], [ -70.719248903651575, 41.679227428443255 ], [ -70.71925287927489, 41.679542704619912 ], [ -70.719294360981266, 41.679800191176149 ], [ -70.719336570829725, 41.680114913720175 ], [ -70.719340271032635, 41.680420508808325 ], [ -70.719225300341918, 41.680803671708738 ], [ -70.71906543188922, 41.681335331790578 ], [ -70.718921096814356, 41.681659606741626 ], [ -70.718720939148085, 41.681944668911804 ], [ -70.718457280471583, 41.682204533853856 ], [ -70.718374773103378, 41.682536829856701 ], [ -70.718416510910671, 41.682883766567556 ], [ -70.718601817416328, 41.683184700249022 ], [ -70.718879628891202, 41.683456443313474 ], [ -70.71911014975008, 41.683728142501614 ], [ -70.719638578935204, 41.683917332594575 ], [ -70.720021203080023, 41.684166859826739 ], [ -70.720358668170675, 41.684410870949677 ], [ -70.720719246948548, 41.684637312943472 ], [ -70.721072582315998, 41.684826844502993 ], [ -70.721425216630323, 41.685027906390609 ], [ -70.721695805154511, 41.685200831565119 ], [ -70.721996262918864, 41.685340758471575 ], [ -70.722333117957248, 41.685558873279646 ], [ -70.722765939035611, 41.685679443949603 ], [ -70.72317430129003, 41.685774241164978 ], [ -70.723591959579608, 41.685845465126086 ], [ -70.724055610396064, 41.685869449406695 ], [ -70.724414668609271, 41.685867114099914 ], [ -70.724750210182975, 41.685822974448222 ], [ -70.72524891934053, 41.685749416118732 ], [ -70.725868779151327, 41.68569862690471 ], [ -70.72623406769786, 41.685879219723518 ], [ -70.726485766062225, 41.686141199692464 ], [ -70.72666794019392, 41.686363595958788 ], [ -70.726882240455126, 41.686567921064579 ], [ -70.727157802678761, 41.686983268408035 ], [ -70.727184785857872, 41.687359504631011 ], [ -70.727145702692098, 41.6877047633307 ], [ -70.727149579993721, 41.687974062149294 ], [ -70.727152896816904, 41.688243075787987 ], [ -70.727156213668223, 41.688512089425124 ], [ -70.727198655324258, 41.688774053125925 ], [ -70.72723959594687, 41.68903600661347 ], [ -70.727240024763518, 41.689070853677833 ], [ -70.712880011999914, 41.68781159100007 ], [ -70.715596063422197, 41.691959074892111 ], [ -70.714980167641414, 41.701616051455147 ], [ -70.715163755148595, 41.701811044463021 ], [ -70.715249920251196, 41.702122431714166 ], [ -70.715465080327817, 41.702464515523083 ], [ -70.71583091373148, 41.702690305129337 ], [ -70.716253013411816, 41.702844027803536 ], [ -70.716753435625336, 41.703140239932949 ], [ -70.717101512929119, 41.703452284299793 ], [ -70.717257726965002, 41.703680425663613 ], [ -70.717453049034958, 41.703965110028925 ], [ -70.71776113880145, 41.704162781178233 ], [ -70.718089059045212, 41.704389287620288 ], [ -70.71837988349651, 41.704701919444062 ], [ -70.718498985886768, 41.704987203991422 ], [ -70.718656412324989, 41.705301170030431 ], [ -70.718816191789983, 41.705729951599039 ], [ -70.718973837553477, 41.706072337205448 ], [ -70.719016712281416, 41.706358504931266 ], [ -70.719098627992494, 41.706701777553334 ], [ -70.719205956957111, 41.707044661696607 ], [ -70.719530642298395, 41.707486154608247 ], [ -70.720169246122808, 41.708344022580221 ], [ -70.719789840835219, 41.708307404038209 ], [ -70.719221318164387, 41.708427778106945 ], [ -70.718690344300967, 41.708537808768135 ], [ -70.718349772832596, 41.708630011375625 ], [ -70.717781343209921, 41.708755115350534 ], [ -70.717251997139684, 41.708908059695283 ], [ -70.716848019807472, 41.709010982867504 ], [ -70.716493772684046, 41.709074761118003 ], [ -70.716257769875853, 41.709327271243197 ], [ -70.716090702180082, 41.709588302888662 ], [ -70.715896873431674, 41.709892584358741 ], [ -70.715689043944252, 41.710217707292962 ], [ -70.715290667982146, 41.71033681643884 ], [ -70.715280319858238, 41.710614307445184 ], [ -70.715023942342953, 41.710839526747471 ], [ -70.71503540899316, 41.711128855899986 ], [ -70.721187994036853, 41.722895100237864 ], [ -70.721932558250245, 41.723947105085323 ], [ -70.722157810675085, 41.72407345917162 ], [ -70.722023378568295, 41.725289458742822 ], [ -70.721654438313962, 41.725263395129367 ], [ -70.721654047622252, 41.725263204277326 ], [ -70.721613752520895, 41.72526030146652 ], [ -70.707696785747046, 41.730221069521463 ], [ -70.70769669241723, 41.730221229141378 ], [ -70.707596488783437, 41.730256938193605 ], [ -70.706618574837606, 41.730219876245535 ], [ -70.706173383137354, 41.730449235057286 ], [ -70.705739386309446, 41.730578683760697 ], [ -70.705325986492213, 41.730810354462477 ], [ -70.705234940567905, 41.731181205417208 ], [ -70.705373865142988, 41.731566052578685 ], [ -70.705383255843486, 41.731610169680565 ], [ -70.705430417396641, 41.731831729048771 ], [ -70.705206220630217, 41.73208721392546 ], [ -70.704792967189476, 41.732225542176565 ], [ -70.70415118167513, 41.73251147999428 ], [ -70.704002849734763, 41.732519470474053 ], [ -70.703583626776663, 41.732542052541291 ], [ -70.70310069683886, 41.732556100830195 ], [ -70.702338227997203, 41.732598686303142 ], [ -70.701699568087335, 41.732728232742936 ], [ -70.701253114058716, 41.732900646434679 ], [ -70.701103826861839, 41.732958298267839 ], [ -70.700361626313111, 41.733444694418523 ], [ -70.700361379713286, 41.733444997018701 ], [ -70.700023469548569, 41.733859949917672 ], [ -70.699468694343423, 41.73462187798377 ], [ -70.699207535038326, 41.734976908667051 ], [ -70.69895197431488, 41.735294852359914 ], [ -70.698602124328715, 41.735794690588754 ], [ -70.698153383540628, 41.736049894127426 ], [ -70.698121254309243, 41.736068165501848 ], [ -70.697645164196729, 41.736247193229026 ], [ -70.696954731126709, 41.736435791435724 ], [ -70.696904851156432, 41.73644631728596 ], [ -70.696336362493554, 41.736566279577886 ], [ -70.694761148784693, 41.736738088545223 ], [ -70.6940394219273, 41.736661764526822 ], [ -70.693277862460818, 41.736562325234026 ], [ -70.693142169138042, 41.736538728033757 ], [ -70.69237907959976, 41.736406021333366 ], [ -70.69196927952899, 41.736323222513214 ], [ -70.691872482809543, 41.736303665225073 ], [ -70.691129184844357, 41.736294784479362 ], [ -70.691109419348265, 41.736294548637559 ], [ -70.689933185871922, 41.736175166386957 ], [ -70.689223064491316, 41.736213679786552 ], [ -70.689137278845024, 41.736219117791435 ], [ -70.689715209710343, 41.735949145336271 ], [ -70.690328968682465, 41.735917715942684 ], [ -70.691075812349453, 41.736087867355465 ], [ -70.690872023771902, 41.73578519999576 ], [ -70.690726900027798, 41.735657702493278 ], [ -70.690408258180398, 41.73541233191763 ], [ -70.690077537905012, 41.734998559902436 ], [ -70.690039302164919, 41.734959512595218 ], [ -70.689564038491909, 41.734496931561715 ], [ -70.689201060566802, 41.733999132412706 ], [ -70.688931515745793, 41.733232821117269 ], [ -70.688687525996841, 41.732469383373427 ], [ -70.688179702005797, 41.73207402164698 ], [ -70.687351393953179, 41.731517396761014 ], [ -70.686487981239523, 41.730794550244944 ], [ -70.685582853270063, 41.72993955699561 ], [ -70.684818001058147, 41.729410378901527 ], [ -70.683590118458923, 41.728770809950547 ], [ -70.683274137335005, 41.728545420393409 ], [ -70.682915943331921, 41.728385281865329 ], [ -70.682988405524469, 41.727831516886077 ], [ -70.682363816111604, 41.727506778247502 ], [ -70.681580498035899, 41.727110639480394 ], [ -70.680919442749229, 41.727294968206756 ], [ -70.680369912449137, 41.727498103858544 ], [ -70.680270711083708, 41.727491439901613 ], [ -70.679248343358552, 41.728242721976009 ], [ -70.678914457803927, 41.728240314683021 ], [ -70.677058380961867, 41.727905304278252 ], [ -70.67606640465381, 41.727147707738872 ], [ -70.673648178501097, 41.726022415367318 ], [ -70.673124443697773, 41.725947144237857 ], [ -70.672896098263337, 41.725913747687528 ], [ -70.672537615200483, 41.725631661763238 ], [ -70.672661079942756, 41.72538115121327 ], [ -70.672432116248672, 41.725034305231738 ], [ -70.672093243742538, 41.725114382415484 ], [ -70.671644302231954, 41.724976882738652 ], [ -70.671071591779892, 41.724999726270291 ], [ -70.670803615876963, 41.724989782121959 ], [ -70.670284440344858, 41.725039396709768 ], [ -70.669960081661003, 41.725145549685855 ], [ -70.66968185719162, 41.725161008419903 ], [ -70.669276555935625, 41.725076682432743 ], [ -70.668847966317628, 41.724722400951464 ], [ -70.668179528048881, 41.724330349957235 ], [ -70.667562869959454, 41.724553803687918 ], [ -70.66749950235365, 41.725009678816193 ], [ -70.667350495297796, 41.725171963820301 ], [ -70.667545697127537, 41.725410691795098 ], [ -70.667446973922054, 41.725608056550975 ], [ -70.666883987932493, 41.725203263127263 ], [ -70.666592271746282, 41.724931354845197 ], [ -70.666097160502588, 41.724918380759277 ], [ -70.665837681159516, 41.725124279153192 ], [ -70.665478610408343, 41.725397416868695 ], [ -70.665386188527023, 41.725635717462048 ], [ -70.665199384763156, 41.725878489965169 ], [ -70.664420403864554, 41.725441255536786 ], [ -70.664431805099824, 41.725428399465137 ], [ -70.664743980539555, 41.725036064254297 ], [ -70.665150068303831, 41.724584765779341 ], [ -70.665502437437524, 41.724263207230386 ], [ -70.665810723137199, 41.723952110592712 ], [ -70.666094749623127, 41.723664986645673 ], [ -70.666276269301889, 41.723370827399499 ], [ -70.666238805802919, 41.722989386289065 ], [ -70.666100791560197, 41.722648007810456 ], [ -70.665939866191451, 41.722383557538798 ], [ -70.665775806647432, 41.722023651677368 ], [ -70.665713551831914, 41.721661959285001 ], [ -70.66547549736849, 41.721379591737055 ], [ -70.665327226788619, 41.721114764354105 ], [ -70.665164487288308, 41.720793274662704 ], [ -70.665038507378512, 41.720432286923753 ], [ -70.664852611273574, 41.720187441794437 ], [ -70.664677109939717, 41.719865763951823 ], [ -70.664629199672277, 41.719561341785798 ], [ -70.664430254580935, 41.719125548761106 ], [ -70.663848936960818, 41.719021520395138 ], [ -70.66338824094133, 41.718943806320674 ], [ -70.662909672956062, 41.718894987300963 ], [ -70.662469234070912, 41.718854981772289 ], [ -70.662126521869837, 41.71888031590138 ], [ -70.661593173387658, 41.718918407652509 ], [ -70.661253278389907, 41.719029484969923 ], [ -70.660992292599843, 41.719230197509347 ], [ -70.660618114987955, 41.719480253181494 ], [ -70.66020213415571, 41.719602227652629 ], [ -70.659718625944294, 41.719610927781083 ], [ -70.659361890521808, 41.719597977133944 ], [ -70.659034610584186, 41.719508521822505 ], [ -70.658572291869646, 41.719373563669102 ], [ -70.658127414280159, 41.719181051055855 ], [ -70.657790101382574, 41.718976905173882 ], [ -70.657429495450089, 41.718830548806118 ], [ -70.657041690928196, 41.718641783875817 ], [ -70.656691329541161, 41.71843322367512 ], [ -70.656354525988618, 41.71823855015176 ], [ -70.656085846672241, 41.717985292218231 ], [ -70.655830437677466, 41.717760550760161 ], [ -70.655557182634894, 41.717564939180576 ], [ -70.655130298021405, 41.717343425993896 ], [ -70.654663979370284, 41.717079693709202 ], [ -70.654240748841517, 41.716972723302597 ], [ -70.653796123401818, 41.716794123394294 ], [ -70.653389434297736, 41.716601031754543 ], [ -70.652834354626137, 41.716553711453543 ], [ -70.652319490716806, 41.716572388645595 ], [ -70.651940342865913, 41.716655524385281 ], [ -70.651601500382313, 41.716804800687441 ], [ -70.651339280117369, 41.716971951709198 ], [ -70.651039996483846, 41.71716799480933 ], [ -70.650779423612789, 41.717378160120582 ], [ -70.650481784525908, 41.717626784024638 ], [ -70.650181619274292, 41.71778985071321 ], [ -70.649730311492149, 41.718012752144567 ], [ -70.649304376172566, 41.718351251520936 ], [ -70.642313448280689, 41.723779740263545 ], [ -70.643035184674829, 41.724226112229545 ], [ -70.643384357600013, 41.724447061310578 ], [ -70.64376086296086, 41.724440796760653 ], [ -70.644380561656931, 41.724409068695763 ], [ -70.644961036145304, 41.724586267315075 ], [ -70.645322480833883, 41.724798205823326 ], [ -70.645770256105294, 41.724910726988156 ], [ -70.646020000215344, 41.72530375954257 ], [ -70.646343569416032, 41.725624571302284 ], [ -70.64686116603805, 41.725965029608204 ], [ -70.647366140914343, 41.726341777874623 ], [ -70.647520221942614, 41.726624929942794 ], [ -70.647588583139594, 41.726962020378387 ], [ -70.647713650996636, 41.727599726984415 ], [ -70.648128003771632, 41.727893940081337 ], [ -70.648291209368054, 41.728179937254723 ], [ -70.648351749061916, 41.728509565404472 ], [ -70.647889087595289, 41.728590625224527 ], [ -70.64750551382167, 41.728539920440589 ], [ -70.647123056141552, 41.728518203758675 ], [ -70.646647038552914, 41.728555154916492 ], [ -70.646055399528279, 41.728565913355474 ], [ -70.645597451058308, 41.728574108246555 ], [ -70.645139723722821, 41.72858211477417 ], [ -70.644604915565978, 41.72857739496061 ], [ -70.643845254355696, 41.728596296736185 ], [ -70.643831248071677, 41.728596645216349 ], [ -70.643831602962251, 41.728621558243844 ], [ -70.643839915545286, 41.729204890142952 ], [ -70.64388558725372, 41.73240974127522 ], [ -70.64390841391608, 41.734011366173718 ], [ -70.643914573987502, 41.734443615142432 ], [ -70.643915657806986, 41.734519631113606 ], [ -70.643918140028617, 41.734693848474713 ], [ -70.643918436162807, 41.734714629137819 ], [ -70.643945254351223, 41.736596234983011 ], [ -70.643945530605819, 41.736615629785881 ], [ -70.643503274618595, 41.738062947904545 ], [ -70.640004035999937, 41.740952867000033 ], [ -70.630604620999918, 41.740139065000051 ], [ -70.623605923999946, 41.729437567000048 ], [ -70.628163214999915, 41.728094794000071 ], [ -70.637806769999941, 41.721991278000075 ], [ -70.635614400080982, 41.717954293249718 ], [ -70.635789046863863, 41.717488055555613 ], [ -70.635839599343484, 41.717137847124199 ], [ -70.635641488524769, 41.716680516945161 ], [ -70.635286024233125, 41.716334540909713 ], [ -70.634750881287943, 41.715946117545919 ], [ -70.634327616300496, 41.715584836136699 ], [ -70.631906704999949, 41.711127020000049 ], [ -70.639963344999899, 41.702297268000052 ], [ -70.652007615999935, 41.693915106000077 ], [ -70.658273891999897, 41.684475002000056 ], [ -70.658156457225857, 41.683090081499607 ], [ -70.659228090144623, 41.682317440044066 ], [ -70.660025652509603, 41.681577128201191 ], [ -70.660520296186533, 41.680894391298587 ], [ -70.660507705296169, 41.680883336082537 ], [ -70.660493789311644, 41.680871116780651 ], [ -70.660568877164422, 41.680785389512863 ], [ -70.660744698357206, 41.680584654067744 ], [ -70.660777298237676, 41.680547433585268 ], [ -70.660824364466791, 41.680144538665765 ], [ -70.660820945415651, 41.680139572077344 ], [ -70.660714659404491, 41.679985168011214 ], [ -70.660695385076849, 41.679957168492216 ], [ -70.660680977090323, 41.679936236957815 ], [ -70.660645727344559, 41.679885028035081 ], [ -70.660634757248786, 41.679869092040121 ], [ -70.657305596993382, 41.67305579830991 ], [ -70.657093878999945, 41.67055898600006 ], [ -70.652007615999935, 41.654242255000042 ], [ -70.652104174463332, 41.639171111341923 ], [ -70.652296694680132, 41.639053174218809 ], [ -70.652577256035912, 41.638793153442066 ], [ -70.652676028464953, 41.638613122544825 ], [ -70.652666255114724, 41.638441321040091 ], [ -70.652560223502107, 41.638259763774961 ], [ -70.65239443529461, 41.638041607539861 ], [ -70.652112268597591, 41.637907753827236 ], [ -70.652495897999927, 41.578029690000051 ], [ -70.661732550999943, 41.550482489000046 ], [ -70.685617641999897, 41.530829169000071 ], [ -70.658681674999912, 41.521349108000038 ], [ -70.605247879968786, 41.548394837391804 ], [ -70.641, 41.515 ], [ -70.675, 41.518 ], [ -70.684913898022614, 41.512844773028242 ], [ -70.694925507999926, 41.517037162000065 ], [ -70.710638157999938, 41.51921397600006 ], [ -70.724354383999923, 41.511099655000066 ], [ -70.742966652999939, 41.500765861000048 ], [ -70.782123842999908, 41.478623419000087 ], [ -70.797559638578306, 41.466976144568676 ], [ -70.815, 41.46 ], [ -70.824883846726721, 41.456705384424424 ], [ -70.828125195999917, 41.457181823000042 ], [ -70.834795133948717, 41.453401622017097 ], [ -70.857968002888938, 41.445677332370352 ], [ -70.859464515999946, 41.448265053000057 ], [ -70.865815742329502, 41.443061419223497 ], [ -70.881743253578804, 41.437752248807065 ], [ -70.897646195999926, 41.436371808000047 ], [ -70.911335139999949, 41.429705943000044 ], [ -70.92292867739549, 41.429083381977826 ], [ -70.922943537802681, 41.429086647132195 ], [ -70.923309941823476, 41.4294523568012 ], [ -70.925083837298203, 41.430175999785313 ], [ -70.927220216189539, 41.430186817087481 ], [ -70.929006888784343, 41.429481202617993 ], [ -70.930262609993676, 41.428415577229231 ], [ -70.930924480968372, 41.427391622116353 ], [ -70.931675043900398, 41.426322737829025 ], [ -70.931795529562237, 41.426139452940639 ], [ -70.931825816399581, 41.426101245735367 ], [ -70.932264946004636, 41.425451076525796 ], [ -70.932758595963506, 41.425176679759176 ], [ -70.933258901110278, 41.425125437966848 ], [ -70.934564757400082, 41.425087296761454 ], [ -70.936351991590513, 41.4242922419362 ], [ -70.936202084486069, 41.423262606640101 ], [ -70.940677533999917, 41.420774915000038 ], [ -70.940853594746628, 41.420625277735468 ], [ -70.941479738208031, 41.420858726600159 ], [ -70.941483847150735, 41.42084169077723 ], [ -70.941485475717741, 41.420833235363354 ], [ -70.941487228594767, 41.420824240342455 ], [ -70.941488742249135, 41.420815244142482 ], [ -70.941490495125294, 41.420806249121576 ], [ -70.941556349789067, 41.420454890713472 ], [ -70.941558341866511, 41.420445896870646 ], [ -70.941559975112511, 41.420436901259443 ], [ -70.941628612716229, 41.420040538236293 ], [ -70.941652454516259, 41.419946312134421 ], [ -70.945069919864125, 41.417041745523179 ], [ -71.0606, 41.4653 ] ] ] } }
]
}
